{
"type": "FeatureCollection",
"name": "envelope",
"crs": { "type": "name", "properties": { "name": "urn:ogc:def:crs:EPSG::6342" } },
"features": [
{ "type": "Feature", "properties": { "min_prob": 0.05 }, "geometry": { "type": "Polygon", "coordinates": [ [ [ 424602.354229784454219, 4389167.489388142712414 ], [ 424602.354229784454219, 4389166.489388142712414 ], [ 424597.354229784454219, 4389166.489388142712414 ], [ 424597.354229784454219, 4389165.489388142712414 ], [ 424594.354229784454219, 4389165.489388142712414 ], [ 424594.354229784454219, 4389164.489388142712414 ], [ 424593.354229784454219, 4389164.489388142712414 ], [ 424593.354229784454219, 4389163.489388142712414 ], [ 424592.354229784454219, 4389163.489388142712414 ], [ 424592.354229784454219, 4389158.489388142712414 ], [ 424593.354229784454219, 4389158.489388142712414 ], [ 424593.354229784454219, 4389156.489388142712414 ], [ 424592.354229784454219, 4389156.489388142712414 ], [ 424592.354229784454219, 4389150.489388142712414 ], [ 424593.354229784454219, 4389150.489388142712414 ], [ 424593.354229784454219, 4389149.489388142712414 ], [ 424589.354229784454219, 4389149.489388142712414 ], [ 424589.354229784454219, 4389146.489388142712414 ], [ 424588.354229784454219, 4389146.489388142712414 ], [ 424588.354229784454219, 4389145.489388142712414 ], [ 424587.354229784454219, 4389145.489388142712414 ], [ 424587.354229784454219, 4389143.489388142712414 ], [ 424586.354229784454219, 4389143.489388142712414 ], [ 424586.354229784454219, 4389142.489388142712414 ], [ 424587.354229784454219, 4389142.489388142712414 ], [ 424587.354229784454219, 4389138.489388142712414 ], [ 424586.354229784454219, 4389138.489388142712414 ], [ 424586.354229784454219, 4389137.489388142712414 ], [ 424584.354229784454219, 4389137.489388142712414 ], [ 424584.354229784454219, 4389135.489388142712414 ], [ 424583.354229784454219, 4389135.489388142712414 ], [ 424583.354229784454219, 4389134.489388142712414 ], [ 424582.354229784454219, 4389134.489388142712414 ], [ 424582.354229784454219, 4389126.489388142712414 ], [ 424583.354229784454219, 4389126.489388142712414 ], [ 424583.354229784454219, 4389124.489388142712414 ], [ 424584.354229784454219, 4389124.489388142712414 ], [ 424584.354229784454219, 4389123.489388142712414 ], [ 424585.354229784454219, 4389123.489388142712414 ], [ 424585.354229784454219, 4389122.489388142712414 ], [ 424586.354229784454219, 4389122.489388142712414 ], [ 424586.354229784454219, 4389121.489388142712414 ], [ 424587.354229784454219, 4389121.489388142712414 ], [ 424587.354229784454219, 4389120.489388142712414 ], [ 424588.354229784454219, 4389120.489388142712414 ], [ 424588.354229784454219, 4389119.489388142712414 ], [ 424589.354229784454219, 4389119.489388142712414 ], [ 424589.354229784454219, 4389118.489388142712414 ], [ 424590.354229784454219, 4389118.489388142712414 ], [ 424590.354229784454219, 4389117.489388142712414 ], [ 424591.354229784454219, 4389117.489388142712414 ], [ 424591.354229784454219, 4389116.489388142712414 ], [ 424592.354229784454219, 4389116.489388142712414 ], [ 424592.354229784454219, 4389115.489388142712414 ], [ 424594.354229784454219, 4389115.489388142712414 ], [ 424594.354229784454219, 4389114.489388142712414 ], [ 424595.354229784454219, 4389114.489388142712414 ], [ 424595.354229784454219, 4389113.489388142712414 ], [ 424596.354229784454219, 4389113.489388142712414 ], [ 424596.354229784454219, 4389112.489388142712414 ], [ 424597.354229784454219, 4389112.489388142712414 ], [ 424597.354229784454219, 4389111.489388142712414 ], [ 424599.354229784454219, 4389111.489388142712414 ], [ 424599.354229784454219, 4389110.489388142712414 ], [ 424600.354229784454219, 4389110.489388142712414 ], [ 424600.354229784454219, 4389109.489388142712414 ], [ 424601.354229784454219, 4389109.489388142712414 ], [ 424601.354229784454219, 4389108.489388142712414 ], [ 424602.354229784454219, 4389108.489388142712414 ], [ 424602.354229784454219, 4389107.489388142712414 ], [ 424604.354229784454219, 4389107.489388142712414 ], [ 424604.354229784454219, 4389106.489388142712414 ], [ 424605.354229784454219, 4389106.489388142712414 ], [ 424605.354229784454219, 4389105.489388142712414 ], [ 424606.354229784454219, 4389105.489388142712414 ], [ 424606.354229784454219, 4389104.489388142712414 ], [ 424608.354229784454219, 4389104.489388142712414 ], [ 424608.354229784454219, 4389103.489388142712414 ], [ 424609.354229784454219, 4389103.489388142712414 ], [ 424609.354229784454219, 4389102.489388142712414 ], [ 424610.354229784454219, 4389102.489388142712414 ], [ 424610.354229784454219, 4389101.489388142712414 ], [ 424612.354229784454219, 4389101.489388142712414 ], [ 424612.354229784454219, 4389100.489388142712414 ], [ 424613.354229784454219, 4389100.489388142712414 ], [ 424613.354229784454219, 4389099.489388142712414 ], [ 424615.354229784454219, 4389099.489388142712414 ], [ 424615.354229784454219, 4389098.489388142712414 ], [ 424616.354229784454219, 4389098.489388142712414 ], [ 424616.354229784454219, 4389097.489388142712414 ], [ 424618.354229784454219, 4389097.489388142712414 ], [ 424618.354229784454219, 4389096.489388142712414 ], [ 424619.354229784454219, 4389096.489388142712414 ], [ 424619.354229784454219, 4389095.489388142712414 ], [ 424621.354229784454219, 4389095.489388142712414 ], [ 424621.354229784454219, 4389094.489388142712414 ], [ 424622.354229784454219, 4389094.489388142712414 ], [ 424622.354229784454219, 4389093.489388142712414 ], [ 424624.354229784454219, 4389093.489388142712414 ], [ 424624.354229784454219, 4389092.489388142712414 ], [ 424626.354229784454219, 4389092.489388142712414 ], [ 424626.354229784454219, 4389091.489388142712414 ], [ 424627.354229784454219, 4389091.489388142712414 ], [ 424627.354229784454219, 4389090.489388142712414 ], [ 424629.354229784454219, 4389090.489388142712414 ], [ 424629.354229784454219, 4389089.489388142712414 ], [ 424631.354229784454219, 4389089.489388142712414 ], [ 424631.354229784454219, 4389088.489388142712414 ], [ 424633.354229784454219, 4389088.489388142712414 ], [ 424633.354229784454219, 4389087.489388142712414 ], [ 424634.354229784454219, 4389087.489388142712414 ], [ 424634.354229784454219, 4389086.489388142712414 ], [ 424636.354229784454219, 4389086.489388142712414 ], [ 424636.354229784454219, 4389085.489388142712414 ], [ 424638.354229784454219, 4389085.489388142712414 ], [ 424638.354229784454219, 4389084.489388142712414 ], [ 424639.354229784454219, 4389084.489388142712414 ], [ 424639.354229784454219, 4389083.489388142712414 ], [ 424640.354229784454219, 4389083.489388142712414 ], [ 424640.354229784454219, 4389082.489388142712414 ], [ 424642.354229784454219, 4389082.489388142712414 ], [ 424642.354229784454219, 4389081.489388142712414 ], [ 424643.354229784454219, 4389081.489388142712414 ], [ 424643.354229784454219, 4389080.489388142712414 ], [ 424645.354229784454219, 4389080.489388142712414 ], [ 424645.354229784454219, 4389079.489388142712414 ], [ 424646.354229784454219, 4389079.489388142712414 ], [ 424646.354229784454219, 4389078.489388142712414 ], [ 424648.354229784454219, 4389078.489388142712414 ], [ 424648.354229784454219, 4389077.489388142712414 ], [ 424649.354229784454219, 4389077.489388142712414 ], [ 424649.354229784454219, 4389076.489388142712414 ], [ 424651.354229784454219, 4389076.489388142712414 ], [ 424651.354229784454219, 4389075.489388142712414 ], [ 424653.354229784454219, 4389075.489388142712414 ], [ 424653.354229784454219, 4389074.489388142712414 ], [ 424654.354229784454219, 4389074.489388142712414 ], [ 424654.354229784454219, 4389073.489388142712414 ], [ 424656.354229784454219, 4389073.489388142712414 ], [ 424656.354229784454219, 4389072.489388142712414 ], [ 424658.354229784454219, 4389072.489388142712414 ], [ 424658.354229784454219, 4389071.489388142712414 ], [ 424660.354229784454219, 4389071.489388142712414 ], [ 424660.354229784454219, 4389070.489388142712414 ], [ 424662.354229784454219, 4389070.489388142712414 ], [ 424662.354229784454219, 4389069.489388142712414 ], [ 424664.354229784454219, 4389069.489388142712414 ], [ 424664.354229784454219, 4389068.489388142712414 ], [ 424667.354229784454219, 4389068.489388142712414 ], [ 424667.354229784454219, 4389067.489388142712414 ], [ 424669.354229784454219, 4389067.489388142712414 ], [ 424669.354229784454219, 4389066.489388142712414 ], [ 424671.354229784454219, 4389066.489388142712414 ], [ 424671.354229784454219, 4389065.489388142712414 ], [ 424673.354229784454219, 4389065.489388142712414 ], [ 424673.354229784454219, 4389064.489388142712414 ], [ 424675.354229784454219, 4389064.489388142712414 ], [ 424675.354229784454219, 4389063.489388142712414 ], [ 424677.354229784454219, 4389063.489388142712414 ], [ 424677.354229784454219, 4389062.489388142712414 ], [ 424679.354229784454219, 4389062.489388142712414 ], [ 424679.354229784454219, 4389061.489388142712414 ], [ 424681.354229784454219, 4389061.489388142712414 ], [ 424681.354229784454219, 4389060.489388142712414 ], [ 424683.354229784454219, 4389060.489388142712414 ], [ 424683.354229784454219, 4389059.489388142712414 ], [ 424685.354229784454219, 4389059.489388142712414 ], [ 424685.354229784454219, 4389058.489388142712414 ], [ 424687.354229784454219, 4389058.489388142712414 ], [ 424687.354229784454219, 4389057.489388142712414 ], [ 424689.354229784454219, 4389057.489388142712414 ], [ 424689.354229784454219, 4389056.489388142712414 ], [ 424691.354229784454219, 4389056.489388142712414 ], [ 424691.354229784454219, 4389055.489388142712414 ], [ 424692.354229784454219, 4389055.489388142712414 ], [ 424692.354229784454219, 4389054.489388142712414 ], [ 424694.354229784454219, 4389054.489388142712414 ], [ 424694.354229784454219, 4389053.489388142712414 ], [ 424696.354229784454219, 4389053.489388142712414 ], [ 424696.354229784454219, 4389052.489388142712414 ], [ 424698.354229784454219, 4389052.489388142712414 ], [ 424698.354229784454219, 4389051.489388142712414 ], [ 424699.354229784454219, 4389051.489388142712414 ], [ 424699.354229784454219, 4389050.489388142712414 ], [ 424701.354229784454219, 4389050.489388142712414 ], [ 424701.354229784454219, 4389049.489388142712414 ], [ 424703.354229784454219, 4389049.489388142712414 ], [ 424703.354229784454219, 4389048.489388142712414 ], [ 424705.354229784454219, 4389048.489388142712414 ], [ 424705.354229784454219, 4389047.489388142712414 ], [ 424706.354229784454219, 4389047.489388142712414 ], [ 424706.354229784454219, 4389046.489388142712414 ], [ 424708.354229784454219, 4389046.489388142712414 ], [ 424708.354229784454219, 4389045.489388142712414 ], [ 424710.354229784454219, 4389045.489388142712414 ], [ 424710.354229784454219, 4389044.489388142712414 ], [ 424712.354229784454219, 4389044.489388142712414 ], [ 424712.354229784454219, 4389043.489388142712414 ], [ 424714.354229784454219, 4389043.489388142712414 ], [ 424714.354229784454219, 4389042.489388142712414 ], [ 424716.354229784454219, 4389042.489388142712414 ], [ 424716.354229784454219, 4389041.489388142712414 ], [ 424718.354229784454219, 4389041.489388142712414 ], [ 424718.354229784454219, 4389040.489388142712414 ], [ 424720.354229784454219, 4389040.489388142712414 ], [ 424720.354229784454219, 4389039.489388142712414 ], [ 424722.354229784454219, 4389039.489388142712414 ], [ 424722.354229784454219, 4389038.489388142712414 ], [ 424724.354229784454219, 4389038.489388142712414 ], [ 424724.354229784454219, 4389037.489388142712414 ], [ 424726.354229784454219, 4389037.489388142712414 ], [ 424726.354229784454219, 4389036.489388142712414 ], [ 424728.354229784454219, 4389036.489388142712414 ], [ 424728.354229784454219, 4389035.489388142712414 ], [ 424730.354229784454219, 4389035.489388142712414 ], [ 424730.354229784454219, 4389034.489388142712414 ], [ 424732.354229784454219, 4389034.489388142712414 ], [ 424732.354229784454219, 4389033.489388142712414 ], [ 424734.354229784454219, 4389033.489388142712414 ], [ 424734.354229784454219, 4389032.489388142712414 ], [ 424736.354229784454219, 4389032.489388142712414 ], [ 424736.354229784454219, 4389031.489388142712414 ], [ 424737.354229784454219, 4389031.489388142712414 ], [ 424737.354229784454219, 4389030.489388142712414 ], [ 424739.354229784454219, 4389030.489388142712414 ], [ 424739.354229784454219, 4389029.489388142712414 ], [ 424741.354229784454219, 4389029.489388142712414 ], [ 424741.354229784454219, 4389028.489388142712414 ], [ 424743.354229784454219, 4389028.489388142712414 ], [ 424743.354229784454219, 4389027.489388142712414 ], [ 424745.354229784454219, 4389027.489388142712414 ], [ 424745.354229784454219, 4389026.489388142712414 ], [ 424748.354229784454219, 4389026.489388142712414 ], [ 424748.354229784454219, 4389025.489388142712414 ], [ 424750.354229784454219, 4389025.489388142712414 ], [ 424750.354229784454219, 4389024.489388142712414 ], [ 424753.354229784454219, 4389024.489388142712414 ], [ 424753.354229784454219, 4389023.489388142712414 ], [ 424755.354229784454219, 4389023.489388142712414 ], [ 424755.354229784454219, 4389022.489388142712414 ], [ 424758.354229784454219, 4389022.489388142712414 ], [ 424758.354229784454219, 4389021.489388142712414 ], [ 424761.354229784454219, 4389021.489388142712414 ], [ 424761.354229784454219, 4389020.489388142712414 ], [ 424764.354229784454219, 4389020.489388142712414 ], [ 424764.354229784454219, 4389019.489388142712414 ], [ 424766.354229784454219, 4389019.489388142712414 ], [ 424766.354229784454219, 4389018.489388142712414 ], [ 424769.354229784454219, 4389018.489388142712414 ], [ 424769.354229784454219, 4389017.489388142712414 ], [ 424771.354229784454219, 4389017.489388142712414 ], [ 424771.354229784454219, 4389016.489388142712414 ], [ 424772.354229784454219, 4389016.489388142712414 ], [ 424772.354229784454219, 4389015.489388142712414 ], [ 424774.354229784454219, 4389015.489388142712414 ], [ 424774.354229784454219, 4389014.489388142712414 ], [ 424775.354229784454219, 4389014.489388142712414 ], [ 424775.354229784454219, 4389013.489388142712414 ], [ 424776.354229784454219, 4389013.489388142712414 ], [ 424776.354229784454219, 4389012.489388142712414 ], [ 424777.354229784454219, 4389012.489388142712414 ], [ 424777.354229784454219, 4389011.489388142712414 ], [ 424779.354229784454219, 4389011.489388142712414 ], [ 424779.354229784454219, 4389009.489388142712414 ], [ 424780.354229784454219, 4389009.489388142712414 ], [ 424780.354229784454219, 4389008.489388142712414 ], [ 424781.354229784454219, 4389008.489388142712414 ], [ 424781.354229784454219, 4389007.489388142712414 ], [ 424782.354229784454219, 4389007.489388142712414 ], [ 424782.354229784454219, 4389006.489388142712414 ], [ 424783.354229784454219, 4389006.489388142712414 ], [ 424783.354229784454219, 4389004.489388142712414 ], [ 424784.354229784454219, 4389004.489388142712414 ], [ 424784.354229784454219, 4389001.489388142712414 ], [ 424785.354229784454219, 4389001.489388142712414 ], [ 424785.354229784454219, 4388997.489388142712414 ], [ 424786.354229784454219, 4388997.489388142712414 ], [ 424786.354229784454219, 4388994.489388142712414 ], [ 424787.354229784454219, 4388994.489388142712414 ], [ 424787.354229784454219, 4388990.489388142712414 ], [ 424788.354229784454219, 4388990.489388142712414 ], [ 424788.354229784454219, 4388987.489388142712414 ], [ 424789.354229784454219, 4388987.489388142712414 ], [ 424789.354229784454219, 4388984.489388142712414 ], [ 424790.354229784454219, 4388984.489388142712414 ], [ 424790.354229784454219, 4388979.489388142712414 ], [ 424791.354229784454219, 4388979.489388142712414 ], [ 424791.354229784454219, 4388969.489388142712414 ], [ 424792.354229784454219, 4388969.489388142712414 ], [ 424792.354229784454219, 4388960.489388142712414 ], [ 424793.354229784454219, 4388960.489388142712414 ], [ 424793.354229784454219, 4388951.489388142712414 ], [ 424794.354229784454219, 4388951.489388142712414 ], [ 424794.354229784454219, 4388940.489388142712414 ], [ 424795.354229784454219, 4388940.489388142712414 ], [ 424795.354229784454219, 4388920.489388142712414 ], [ 424796.354229784454219, 4388920.489388142712414 ], [ 424796.354229784454219, 4388912.489388142712414 ], [ 424797.354229784454219, 4388912.489388142712414 ], [ 424797.354229784454219, 4388907.489388142712414 ], [ 424798.354229784454219, 4388907.489388142712414 ], [ 424798.354229784454219, 4388902.489388142712414 ], [ 424799.354229784454219, 4388902.489388142712414 ], [ 424799.354229784454219, 4388898.489388142712414 ], [ 424800.354229784454219, 4388898.489388142712414 ], [ 424800.354229784454219, 4388894.489388142712414 ], [ 424801.354229784454219, 4388894.489388142712414 ], [ 424801.354229784454219, 4388889.489388142712414 ], [ 424802.354229784454219, 4388889.489388142712414 ], [ 424802.354229784454219, 4388885.489388142712414 ], [ 424803.354229784454219, 4388885.489388142712414 ], [ 424803.354229784454219, 4388881.489388142712414 ], [ 424804.354229784454219, 4388881.489388142712414 ], [ 424804.354229784454219, 4388878.489388142712414 ], [ 424805.354229784454219, 4388878.489388142712414 ], [ 424805.354229784454219, 4388874.489388142712414 ], [ 424806.354229784454219, 4388874.489388142712414 ], [ 424806.354229784454219, 4388871.489388142712414 ], [ 424807.354229784454219, 4388871.489388142712414 ], [ 424807.354229784454219, 4388867.489388142712414 ], [ 424808.354229784454219, 4388867.489388142712414 ], [ 424808.354229784454219, 4388864.489388142712414 ], [ 424809.354229784454219, 4388864.489388142712414 ], [ 424809.354229784454219, 4388861.489388142712414 ], [ 424810.354229784454219, 4388861.489388142712414 ], [ 424810.354229784454219, 4388858.489388142712414 ], [ 424811.354229784454219, 4388858.489388142712414 ], [ 424811.354229784454219, 4388856.489388142712414 ], [ 424812.354229784454219, 4388856.489388142712414 ], [ 424812.354229784454219, 4388853.489388142712414 ], [ 424813.354229784454219, 4388853.489388142712414 ], [ 424813.354229784454219, 4388850.489388142712414 ], [ 424814.354229784454219, 4388850.489388142712414 ], [ 424814.354229784454219, 4388847.489388142712414 ], [ 424815.354229784454219, 4388847.489388142712414 ], [ 424815.354229784454219, 4388844.489388142712414 ], [ 424816.354229784454219, 4388844.489388142712414 ], [ 424816.354229784454219, 4388841.489388142712414 ], [ 424817.354229784454219, 4388841.489388142712414 ], [ 424817.354229784454219, 4388839.489388142712414 ], [ 424818.354229784454219, 4388839.489388142712414 ], [ 424818.354229784454219, 4388836.489388142712414 ], [ 424819.354229784454219, 4388836.489388142712414 ], [ 424819.354229784454219, 4388833.489388142712414 ], [ 424820.354229784454219, 4388833.489388142712414 ], [ 424820.354229784454219, 4388831.489388142712414 ], [ 424821.354229784454219, 4388831.489388142712414 ], [ 424821.354229784454219, 4388829.489388142712414 ], [ 424822.354229784454219, 4388829.489388142712414 ], [ 424822.354229784454219, 4388826.489388142712414 ], [ 424823.354229784454219, 4388826.489388142712414 ], [ 424823.354229784454219, 4388823.489388142712414 ], [ 424824.354229784454219, 4388823.489388142712414 ], [ 424824.354229784454219, 4388820.489388142712414 ], [ 424825.354229784454219, 4388820.489388142712414 ], [ 424825.354229784454219, 4388817.489388142712414 ], [ 424826.354229784454219, 4388817.489388142712414 ], [ 424826.354229784454219, 4388814.489388142712414 ], [ 424827.354229784454219, 4388814.489388142712414 ], [ 424827.354229784454219, 4388812.489388142712414 ], [ 424828.354229784454219, 4388812.489388142712414 ], [ 424828.354229784454219, 4388809.489388142712414 ], [ 424829.354229784454219, 4388809.489388142712414 ], [ 424829.354229784454219, 4388807.489388142712414 ], [ 424830.354229784454219, 4388807.489388142712414 ], [ 424830.354229784454219, 4388804.489388142712414 ], [ 424831.354229784454219, 4388804.489388142712414 ], [ 424831.354229784454219, 4388803.489388142712414 ], [ 424832.354229784454219, 4388803.489388142712414 ], [ 424832.354229784454219, 4388801.489388142712414 ], [ 424833.354229784454219, 4388801.489388142712414 ], [ 424833.354229784454219, 4388799.489388142712414 ], [ 424834.354229784454219, 4388799.489388142712414 ], [ 424834.354229784454219, 4388797.489388142712414 ], [ 424835.354229784454219, 4388797.489388142712414 ], [ 424835.354229784454219, 4388795.489388142712414 ], [ 424836.354229784454219, 4388795.489388142712414 ], [ 424836.354229784454219, 4388794.489388142712414 ], [ 424837.354229784454219, 4388794.489388142712414 ], [ 424837.354229784454219, 4388792.489388142712414 ], [ 424838.354229784454219, 4388792.489388142712414 ], [ 424838.354229784454219, 4388791.489388142712414 ], [ 424839.354229784454219, 4388791.489388142712414 ], [ 424839.354229784454219, 4388789.489388142712414 ], [ 424840.354229784454219, 4388789.489388142712414 ], [ 424840.354229784454219, 4388788.489388142712414 ], [ 424841.354229784454219, 4388788.489388142712414 ], [ 424841.354229784454219, 4388786.489388142712414 ], [ 424842.354229784454219, 4388786.489388142712414 ], [ 424842.354229784454219, 4388784.489388142712414 ], [ 424843.354229784454219, 4388784.489388142712414 ], [ 424843.354229784454219, 4388782.489388142712414 ], [ 424844.354229784454219, 4388782.489388142712414 ], [ 424844.354229784454219, 4388781.489388142712414 ], [ 424845.354229784454219, 4388781.489388142712414 ], [ 424845.354229784454219, 4388779.489388142712414 ], [ 424846.354229784454219, 4388779.489388142712414 ], [ 424846.354229784454219, 4388778.489388142712414 ], [ 424847.354229784454219, 4388778.489388142712414 ], [ 424847.354229784454219, 4388776.489388142712414 ], [ 424848.354229784454219, 4388776.489388142712414 ], [ 424848.354229784454219, 4388775.489388142712414 ], [ 424849.354229784454219, 4388775.489388142712414 ], [ 424849.354229784454219, 4388773.489388142712414 ], [ 424850.354229784454219, 4388773.489388142712414 ], [ 424850.354229784454219, 4388772.489388142712414 ], [ 424851.354229784454219, 4388772.489388142712414 ], [ 424851.354229784454219, 4388770.489388142712414 ], [ 424852.354229784454219, 4388770.489388142712414 ], [ 424852.354229784454219, 4388767.489388142712414 ], [ 424853.354229784454219, 4388767.489388142712414 ], [ 424853.354229784454219, 4388763.489388142712414 ], [ 424854.354229784454219, 4388763.489388142712414 ], [ 424854.354229784454219, 4388759.489388142712414 ], [ 424855.354229784454219, 4388759.489388142712414 ], [ 424855.354229784454219, 4388755.489388142712414 ], [ 424856.354229784454219, 4388755.489388142712414 ], [ 424856.354229784454219, 4388750.489388142712414 ], [ 424857.354229784454219, 4388750.489388142712414 ], [ 424857.354229784454219, 4388747.489388142712414 ], [ 424858.354229784454219, 4388747.489388142712414 ], [ 424858.354229784454219, 4388743.489388142712414 ], [ 424859.354229784454219, 4388743.489388142712414 ], [ 424859.354229784454219, 4388740.489388142712414 ], [ 424860.354229784454219, 4388740.489388142712414 ], [ 424860.354229784454219, 4388737.489388142712414 ], [ 424861.354229784454219, 4388737.489388142712414 ], [ 424861.354229784454219, 4388733.489388142712414 ], [ 424862.354229784454219, 4388733.489388142712414 ], [ 424862.354229784454219, 4388730.489388142712414 ], [ 424863.354229784454219, 4388730.489388142712414 ], [ 424863.354229784454219, 4388726.489388142712414 ], [ 424864.354229784454219, 4388726.489388142712414 ], [ 424864.354229784454219, 4388723.489388142712414 ], [ 424865.354229784454219, 4388723.489388142712414 ], [ 424865.354229784454219, 4388719.489388142712414 ], [ 424866.354229784454219, 4388719.489388142712414 ], [ 424866.354229784454219, 4388714.489388142712414 ], [ 424867.354229784454219, 4388714.489388142712414 ], [ 424867.354229784454219, 4388708.489388142712414 ], [ 424868.354229784454219, 4388708.489388142712414 ], [ 424868.354229784454219, 4388702.489388142712414 ], [ 424869.354229784454219, 4388702.489388142712414 ], [ 424869.354229784454219, 4388691.489388142712414 ], [ 424870.354229784454219, 4388691.489388142712414 ], [ 424870.354229784454219, 4388669.489388142712414 ], [ 424869.354229784454219, 4388669.489388142712414 ], [ 424869.354229784454219, 4388657.489388142712414 ], [ 424868.354229784454219, 4388657.489388142712414 ], [ 424868.354229784454219, 4388638.489388142712414 ], [ 424867.354229784454219, 4388638.489388142712414 ], [ 424867.354229784454219, 4388611.489388142712414 ], [ 424868.354229784454219, 4388611.489388142712414 ], [ 424868.354229784454219, 4388592.489388142712414 ], [ 424869.354229784454219, 4388592.489388142712414 ], [ 424869.354229784454219, 4388580.489388142712414 ], [ 424870.354229784454219, 4388580.489388142712414 ], [ 424870.354229784454219, 4388568.489388142712414 ], [ 424871.354229784454219, 4388568.489388142712414 ], [ 424871.354229784454219, 4388563.489388142712414 ], [ 424870.354229784454219, 4388563.489388142712414 ], [ 424870.354229784454219, 4388538.489388142712414 ], [ 424869.354229784454219, 4388538.489388142712414 ], [ 424869.354229784454219, 4388530.489388142712414 ], [ 424868.354229784454219, 4388530.489388142712414 ], [ 424868.354229784454219, 4388509.489388142712414 ], [ 424869.354229784454219, 4388509.489388142712414 ], [ 424869.354229784454219, 4388502.489388142712414 ], [ 424870.354229784454219, 4388502.489388142712414 ], [ 424870.354229784454219, 4388496.489388142712414 ], [ 424869.354229784454219, 4388496.489388142712414 ], [ 424869.354229784454219, 4388489.489388142712414 ], [ 424868.354229784454219, 4388489.489388142712414 ], [ 424868.354229784454219, 4388483.489388142712414 ], [ 424867.354229784454219, 4388483.489388142712414 ], [ 424867.354229784454219, 4388476.489388142712414 ], [ 424866.354229784454219, 4388476.489388142712414 ], [ 424866.354229784454219, 4388469.489388142712414 ], [ 424865.354229784454219, 4388469.489388142712414 ], [ 424865.354229784454219, 4388461.489388142712414 ], [ 424864.354229784454219, 4388461.489388142712414 ], [ 424864.354229784454219, 4388454.489388142712414 ], [ 424863.354229784454219, 4388454.489388142712414 ], [ 424863.354229784454219, 4388448.489388142712414 ], [ 424862.354229784454219, 4388448.489388142712414 ], [ 424862.354229784454219, 4388441.489388142712414 ], [ 424861.354229784454219, 4388441.489388142712414 ], [ 424861.354229784454219, 4388436.489388142712414 ], [ 424860.354229784454219, 4388436.489388142712414 ], [ 424860.354229784454219, 4388428.489388142712414 ], [ 424859.354229784454219, 4388428.489388142712414 ], [ 424859.354229784454219, 4388427.489388142712414 ], [ 424858.354229784454219, 4388427.489388142712414 ], [ 424858.354229784454219, 4388426.489388142712414 ], [ 424855.354229784454219, 4388426.489388142712414 ], [ 424855.354229784454219, 4388425.489388142712414 ], [ 424851.354229784454219, 4388425.489388142712414 ], [ 424851.354229784454219, 4388424.489388142712414 ], [ 424849.354229784454219, 4388424.489388142712414 ], [ 424849.354229784454219, 4388423.489388142712414 ], [ 424847.354229784454219, 4388423.489388142712414 ], [ 424847.354229784454219, 4388422.489388142712414 ], [ 424846.354229784454219, 4388422.489388142712414 ], [ 424846.354229784454219, 4388421.489388142712414 ], [ 424845.354229784454219, 4388421.489388142712414 ], [ 424845.354229784454219, 4388418.489388142712414 ], [ 424844.354229784454219, 4388418.489388142712414 ], [ 424844.354229784454219, 4388417.489388142712414 ], [ 424843.354229784454219, 4388417.489388142712414 ], [ 424843.354229784454219, 4388416.489388142712414 ], [ 424842.354229784454219, 4388416.489388142712414 ], [ 424842.354229784454219, 4388415.489388142712414 ], [ 424841.354229784454219, 4388415.489388142712414 ], [ 424841.354229784454219, 4388412.489388142712414 ], [ 424840.354229784454219, 4388412.489388142712414 ], [ 424840.354229784454219, 4388411.489388142712414 ], [ 424839.354229784454219, 4388411.489388142712414 ], [ 424839.354229784454219, 4388410.489388142712414 ], [ 424838.354229784454219, 4388410.489388142712414 ], [ 424838.354229784454219, 4388409.489388142712414 ], [ 424836.354229784454219, 4388409.489388142712414 ], [ 424836.354229784454219, 4388406.489388142712414 ], [ 424835.354229784454219, 4388406.489388142712414 ], [ 424835.354229784454219, 4388405.489388142712414 ], [ 424834.354229784454219, 4388405.489388142712414 ], [ 424834.354229784454219, 4388403.489388142712414 ], [ 424833.354229784454219, 4388403.489388142712414 ], [ 424833.354229784454219, 4388402.489388142712414 ], [ 424832.354229784454219, 4388402.489388142712414 ], [ 424832.354229784454219, 4388398.489388142712414 ], [ 424833.354229784454219, 4388398.489388142712414 ], [ 424833.354229784454219, 4388393.489388142712414 ], [ 424834.354229784454219, 4388393.489388142712414 ], [ 424834.354229784454219, 4388392.489388142712414 ], [ 424835.354229784454219, 4388392.489388142712414 ], [ 424835.354229784454219, 4388385.489388142712414 ], [ 424836.354229784454219, 4388385.489388142712414 ], [ 424836.354229784454219, 4388379.489388142712414 ], [ 424835.354229784454219, 4388379.489388142712414 ], [ 424835.354229784454219, 4388372.489388142712414 ], [ 424834.354229784454219, 4388372.489388142712414 ], [ 424834.354229784454219, 4388369.489388142712414 ], [ 424831.354229784454219, 4388369.489388142712414 ], [ 424831.354229784454219, 4388368.489388142712414 ], [ 424830.354229784454219, 4388368.489388142712414 ], [ 424830.354229784454219, 4388367.489388142712414 ], [ 424826.354229784454219, 4388367.489388142712414 ], [ 424826.354229784454219, 4388366.489388142712414 ], [ 424820.354229784454219, 4388366.489388142712414 ], [ 424820.354229784454219, 4388365.489388142712414 ], [ 424819.354229784454219, 4388365.489388142712414 ], [ 424819.354229784454219, 4388364.489388142712414 ], [ 424817.354229784454219, 4388364.489388142712414 ], [ 424817.354229784454219, 4388362.489388142712414 ], [ 424816.354229784454219, 4388362.489388142712414 ], [ 424816.354229784454219, 4388361.489388142712414 ], [ 424815.354229784454219, 4388361.489388142712414 ], [ 424815.354229784454219, 4388360.489388142712414 ], [ 424814.354229784454219, 4388360.489388142712414 ], [ 424814.354229784454219, 4388359.489388142712414 ], [ 424812.354229784454219, 4388359.489388142712414 ], [ 424812.354229784454219, 4388358.489388142712414 ], [ 424811.354229784454219, 4388358.489388142712414 ], [ 424811.354229784454219, 4388357.489388142712414 ], [ 424810.354229784454219, 4388357.489388142712414 ], [ 424810.354229784454219, 4388356.489388142712414 ], [ 424809.354229784454219, 4388356.489388142712414 ], [ 424809.354229784454219, 4388355.489388142712414 ], [ 424810.354229784454219, 4388355.489388142712414 ], [ 424810.354229784454219, 4388353.489388142712414 ], [ 424812.354229784454219, 4388353.489388142712414 ], [ 424812.354229784454219, 4388352.489388142712414 ], [ 424813.354229784454219, 4388352.489388142712414 ], [ 424813.354229784454219, 4388351.489388142712414 ], [ 424814.354229784454219, 4388351.489388142712414 ], [ 424814.354229784454219, 4388350.489388142712414 ], [ 424813.354229784454219, 4388350.489388142712414 ], [ 424813.354229784454219, 4388345.489388142712414 ], [ 424816.354229784454219, 4388345.489388142712414 ], [ 424816.354229784454219, 4388347.489388142712414 ], [ 424818.354229784454219, 4388347.489388142712414 ], [ 424818.354229784454219, 4388348.489388142712414 ], [ 424819.354229784454219, 4388348.489388142712414 ], [ 424819.354229784454219, 4388349.489388142712414 ], [ 424821.354229784454219, 4388349.489388142712414 ], [ 424821.354229784454219, 4388350.489388142712414 ], [ 424825.354229784454219, 4388350.489388142712414 ], [ 424825.354229784454219, 4388351.489388142712414 ], [ 424827.354229784454219, 4388351.489388142712414 ], [ 424827.354229784454219, 4388352.489388142712414 ], [ 424830.354229784454219, 4388352.489388142712414 ], [ 424830.354229784454219, 4388354.489388142712414 ], [ 424831.354229784454219, 4388354.489388142712414 ], [ 424831.354229784454219, 4388355.489388142712414 ], [ 424832.354229784454219, 4388355.489388142712414 ], [ 424832.354229784454219, 4388356.489388142712414 ], [ 424834.354229784454219, 4388356.489388142712414 ], [ 424834.354229784454219, 4388357.489388142712414 ], [ 424843.354229784454219, 4388357.489388142712414 ], [ 424843.354229784454219, 4388351.489388142712414 ], [ 424842.354229784454219, 4388351.489388142712414 ], [ 424842.354229784454219, 4388348.489388142712414 ], [ 424841.354229784454219, 4388348.489388142712414 ], [ 424841.354229784454219, 4388345.489388142712414 ], [ 424840.354229784454219, 4388345.489388142712414 ], [ 424840.354229784454219, 4388342.489388142712414 ], [ 424841.354229784454219, 4388342.489388142712414 ], [ 424841.354229784454219, 4388341.489388142712414 ], [ 424843.354229784454219, 4388341.489388142712414 ], [ 424843.354229784454219, 4388340.489388142712414 ], [ 424845.354229784454219, 4388340.489388142712414 ], [ 424845.354229784454219, 4388341.489388142712414 ], [ 424847.354229784454219, 4388341.489388142712414 ], [ 424847.354229784454219, 4388344.489388142712414 ], [ 424849.354229784454219, 4388344.489388142712414 ], [ 424849.354229784454219, 4388347.489388142712414 ], [ 424850.354229784454219, 4388347.489388142712414 ], [ 424850.354229784454219, 4388348.489388142712414 ], [ 424851.354229784454219, 4388348.489388142712414 ], [ 424851.354229784454219, 4388349.489388142712414 ], [ 424852.354229784454219, 4388349.489388142712414 ], [ 424852.354229784454219, 4388350.489388142712414 ], [ 424853.354229784454219, 4388350.489388142712414 ], [ 424853.354229784454219, 4388352.489388142712414 ], [ 424854.354229784454219, 4388352.489388142712414 ], [ 424854.354229784454219, 4388353.489388142712414 ], [ 424855.354229784454219, 4388353.489388142712414 ], [ 424855.354229784454219, 4388354.489388142712414 ], [ 424857.354229784454219, 4388354.489388142712414 ], [ 424857.354229784454219, 4388355.489388142712414 ], [ 424859.354229784454219, 4388355.489388142712414 ], [ 424859.354229784454219, 4388356.489388142712414 ], [ 424860.354229784454219, 4388356.489388142712414 ], [ 424860.354229784454219, 4388355.489388142712414 ], [ 424861.354229784454219, 4388355.489388142712414 ], [ 424861.354229784454219, 4388356.489388142712414 ], [ 424862.354229784454219, 4388356.489388142712414 ], [ 424862.354229784454219, 4388357.489388142712414 ], [ 424864.354229784454219, 4388357.489388142712414 ], [ 424864.354229784454219, 4388359.489388142712414 ], [ 424865.354229784454219, 4388359.489388142712414 ], [ 424865.354229784454219, 4388360.489388142712414 ], [ 424866.354229784454219, 4388360.489388142712414 ], [ 424866.354229784454219, 4388362.489388142712414 ], [ 424865.354229784454219, 4388362.489388142712414 ], [ 424865.354229784454219, 4388366.489388142712414 ], [ 424866.354229784454219, 4388366.489388142712414 ], [ 424866.354229784454219, 4388369.489388142712414 ], [ 424867.354229784454219, 4388369.489388142712414 ], [ 424867.354229784454219, 4388371.489388142712414 ], [ 424868.354229784454219, 4388371.489388142712414 ], [ 424868.354229784454219, 4388374.489388142712414 ], [ 424869.354229784454219, 4388374.489388142712414 ], [ 424869.354229784454219, 4388375.489388142712414 ], [ 424870.354229784454219, 4388375.489388142712414 ], [ 424870.354229784454219, 4388377.489388142712414 ], [ 424871.354229784454219, 4388377.489388142712414 ], [ 424871.354229784454219, 4388378.489388142712414 ], [ 424872.354229784454219, 4388378.489388142712414 ], [ 424872.354229784454219, 4388379.489388142712414 ], [ 424873.354229784454219, 4388379.489388142712414 ], [ 424873.354229784454219, 4388380.489388142712414 ], [ 424875.354229784454219, 4388380.489388142712414 ], [ 424875.354229784454219, 4388381.489388142712414 ], [ 424878.354229784454219, 4388381.489388142712414 ], [ 424878.354229784454219, 4388382.489388142712414 ], [ 424879.354229784454219, 4388382.489388142712414 ], [ 424879.354229784454219, 4388383.489388142712414 ], [ 424880.354229784454219, 4388383.489388142712414 ], [ 424880.354229784454219, 4388384.489388142712414 ], [ 424882.354229784454219, 4388384.489388142712414 ], [ 424882.354229784454219, 4388385.489388142712414 ], [ 424883.354229784454219, 4388385.489388142712414 ], [ 424883.354229784454219, 4388386.489388142712414 ], [ 424884.354229784454219, 4388386.489388142712414 ], [ 424884.354229784454219, 4388387.489388142712414 ], [ 424886.354229784454219, 4388387.489388142712414 ], [ 424886.354229784454219, 4388388.489388142712414 ], [ 424887.354229784454219, 4388388.489388142712414 ], [ 424887.354229784454219, 4388389.489388142712414 ], [ 424888.354229784454219, 4388389.489388142712414 ], [ 424888.354229784454219, 4388390.489388142712414 ], [ 424889.354229784454219, 4388390.489388142712414 ], [ 424889.354229784454219, 4388392.489388142712414 ], [ 424890.354229784454219, 4388392.489388142712414 ], [ 424890.354229784454219, 4388393.489388142712414 ], [ 424891.354229784454219, 4388393.489388142712414 ], [ 424891.354229784454219, 4388395.489388142712414 ], [ 424893.354229784454219, 4388395.489388142712414 ], [ 424893.354229784454219, 4388396.489388142712414 ], [ 424894.354229784454219, 4388396.489388142712414 ], [ 424894.354229784454219, 4388397.489388142712414 ], [ 424895.354229784454219, 4388397.489388142712414 ], [ 424895.354229784454219, 4388398.489388142712414 ], [ 424904.354229784454219, 4388398.489388142712414 ], [ 424904.354229784454219, 4388399.489388142712414 ], [ 424907.354229784454219, 4388399.489388142712414 ], [ 424907.354229784454219, 4388400.489388142712414 ], [ 424908.354229784454219, 4388400.489388142712414 ], [ 424908.354229784454219, 4388410.489388142712414 ], [ 424909.354229784454219, 4388410.489388142712414 ], [ 424909.354229784454219, 4388413.489388142712414 ], [ 424910.354229784454219, 4388413.489388142712414 ], [ 424910.354229784454219, 4388416.489388142712414 ], [ 424911.354229784454219, 4388416.489388142712414 ], [ 424911.354229784454219, 4388417.489388142712414 ], [ 424912.354229784454219, 4388417.489388142712414 ], [ 424912.354229784454219, 4388420.489388142712414 ], [ 424913.354229784454219, 4388420.489388142712414 ], [ 424913.354229784454219, 4388422.489388142712414 ], [ 424914.354229784454219, 4388422.489388142712414 ], [ 424914.354229784454219, 4388424.489388142712414 ], [ 424915.354229784454219, 4388424.489388142712414 ], [ 424915.354229784454219, 4388426.489388142712414 ], [ 424916.354229784454219, 4388426.489388142712414 ], [ 424916.354229784454219, 4388428.489388142712414 ], [ 424917.354229784454219, 4388428.489388142712414 ], [ 424917.354229784454219, 4388430.489388142712414 ], [ 424922.354229784454219, 4388430.489388142712414 ], [ 424922.354229784454219, 4388431.489388142712414 ], [ 424926.354229784454219, 4388431.489388142712414 ], [ 424926.354229784454219, 4388430.489388142712414 ], [ 424932.354229784454219, 4388430.489388142712414 ], [ 424932.354229784454219, 4388429.489388142712414 ], [ 424934.354229784454219, 4388429.489388142712414 ], [ 424934.354229784454219, 4388430.489388142712414 ], [ 424937.354229784454219, 4388430.489388142712414 ], [ 424937.354229784454219, 4388431.489388142712414 ], [ 424938.354229784454219, 4388431.489388142712414 ], [ 424938.354229784454219, 4388428.489388142712414 ], [ 424939.354229784454219, 4388428.489388142712414 ], [ 424939.354229784454219, 4388427.489388142712414 ], [ 424940.354229784454219, 4388427.489388142712414 ], [ 424940.354229784454219, 4388426.489388142712414 ], [ 424941.354229784454219, 4388426.489388142712414 ], [ 424941.354229784454219, 4388425.489388142712414 ], [ 424942.354229784454219, 4388425.489388142712414 ], [ 424942.354229784454219, 4388421.489388142712414 ], [ 424941.354229784454219, 4388421.489388142712414 ], [ 424941.354229784454219, 4388417.489388142712414 ], [ 424940.354229784454219, 4388417.489388142712414 ], [ 424940.354229784454219, 4388416.489388142712414 ], [ 424938.354229784454219, 4388416.489388142712414 ], [ 424938.354229784454219, 4388415.489388142712414 ], [ 424937.354229784454219, 4388415.489388142712414 ], [ 424937.354229784454219, 4388414.489388142712414 ], [ 424936.354229784454219, 4388414.489388142712414 ], [ 424936.354229784454219, 4388413.489388142712414 ], [ 424934.354229784454219, 4388413.489388142712414 ], [ 424934.354229784454219, 4388412.489388142712414 ], [ 424933.354229784454219, 4388412.489388142712414 ], [ 424933.354229784454219, 4388409.489388142712414 ], [ 424932.354229784454219, 4388409.489388142712414 ], [ 424932.354229784454219, 4388408.489388142712414 ], [ 424933.354229784454219, 4388408.489388142712414 ], [ 424933.354229784454219, 4388407.489388142712414 ], [ 424934.354229784454219, 4388407.489388142712414 ], [ 424934.354229784454219, 4388406.489388142712414 ], [ 424949.354229784454219, 4388406.489388142712414 ], [ 424949.354229784454219, 4388407.489388142712414 ], [ 424953.354229784454219, 4388407.489388142712414 ], [ 424953.354229784454219, 4388408.489388142712414 ], [ 424958.354229784454219, 4388408.489388142712414 ], [ 424958.354229784454219, 4388409.489388142712414 ], [ 424961.354229784454219, 4388409.489388142712414 ], [ 424961.354229784454219, 4388410.489388142712414 ], [ 424965.354229784454219, 4388410.489388142712414 ], [ 424965.354229784454219, 4388411.489388142712414 ], [ 424966.354229784454219, 4388411.489388142712414 ], [ 424966.354229784454219, 4388412.489388142712414 ], [ 424968.354229784454219, 4388412.489388142712414 ], [ 424968.354229784454219, 4388413.489388142712414 ], [ 424970.354229784454219, 4388413.489388142712414 ], [ 424970.354229784454219, 4388414.489388142712414 ], [ 424972.354229784454219, 4388414.489388142712414 ], [ 424972.354229784454219, 4388415.489388142712414 ], [ 424975.354229784454219, 4388415.489388142712414 ], [ 424975.354229784454219, 4388416.489388142712414 ], [ 424976.354229784454219, 4388416.489388142712414 ], [ 424976.354229784454219, 4388417.489388142712414 ], [ 424978.354229784454219, 4388417.489388142712414 ], [ 424978.354229784454219, 4388418.489388142712414 ], [ 424979.354229784454219, 4388418.489388142712414 ], [ 424979.354229784454219, 4388419.489388142712414 ], [ 424981.354229784454219, 4388419.489388142712414 ], [ 424981.354229784454219, 4388420.489388142712414 ], [ 424982.354229784454219, 4388420.489388142712414 ], [ 424982.354229784454219, 4388421.489388142712414 ], [ 424985.354229784454219, 4388421.489388142712414 ], [ 424985.354229784454219, 4388424.489388142712414 ], [ 424986.354229784454219, 4388424.489388142712414 ], [ 424986.354229784454219, 4388425.489388142712414 ], [ 424988.354229784454219, 4388425.489388142712414 ], [ 424988.354229784454219, 4388426.489388142712414 ], [ 424990.354229784454219, 4388426.489388142712414 ], [ 424990.354229784454219, 4388427.489388142712414 ], [ 424992.354229784454219, 4388427.489388142712414 ], [ 424992.354229784454219, 4388428.489388142712414 ], [ 424995.354229784454219, 4388428.489388142712414 ], [ 424995.354229784454219, 4388429.489388142712414 ], [ 424998.354229784454219, 4388429.489388142712414 ], [ 424998.354229784454219, 4388430.489388142712414 ], [ 425002.354229784454219, 4388430.489388142712414 ], [ 425002.354229784454219, 4388431.489388142712414 ], [ 425004.354229784454219, 4388431.489388142712414 ], [ 425004.354229784454219, 4388432.489388142712414 ], [ 425005.354229784454219, 4388432.489388142712414 ], [ 425005.354229784454219, 4388431.489388142712414 ], [ 425006.354229784454219, 4388431.489388142712414 ], [ 425006.354229784454219, 4388434.489388142712414 ], [ 425007.354229784454219, 4388434.489388142712414 ], [ 425007.354229784454219, 4388436.489388142712414 ], [ 425008.354229784454219, 4388436.489388142712414 ], [ 425008.354229784454219, 4388438.489388142712414 ], [ 425009.354229784454219, 4388438.489388142712414 ], [ 425009.354229784454219, 4388440.489388142712414 ], [ 425010.354229784454219, 4388440.489388142712414 ], [ 425010.354229784454219, 4388441.489388142712414 ], [ 425012.354229784454219, 4388441.489388142712414 ], [ 425012.354229784454219, 4388442.489388142712414 ], [ 425013.354229784454219, 4388442.489388142712414 ], [ 425013.354229784454219, 4388444.489388142712414 ], [ 425014.354229784454219, 4388444.489388142712414 ], [ 425014.354229784454219, 4388445.489388142712414 ], [ 425016.354229784454219, 4388445.489388142712414 ], [ 425016.354229784454219, 4388446.489388142712414 ], [ 425017.354229784454219, 4388446.489388142712414 ], [ 425017.354229784454219, 4388448.489388142712414 ], [ 425018.354229784454219, 4388448.489388142712414 ], [ 425018.354229784454219, 4388451.489388142712414 ], [ 425017.354229784454219, 4388451.489388142712414 ], [ 425017.354229784454219, 4388457.489388142712414 ], [ 425016.354229784454219, 4388457.489388142712414 ], [ 425016.354229784454219, 4388461.489388142712414 ], [ 425015.354229784454219, 4388461.489388142712414 ], [ 425015.354229784454219, 4388464.489388142712414 ], [ 425014.354229784454219, 4388464.489388142712414 ], [ 425014.354229784454219, 4388466.489388142712414 ], [ 425013.354229784454219, 4388466.489388142712414 ], [ 425013.354229784454219, 4388469.489388142712414 ], [ 425012.354229784454219, 4388469.489388142712414 ], [ 425012.354229784454219, 4388471.489388142712414 ], [ 425011.354229784454219, 4388471.489388142712414 ], [ 425011.354229784454219, 4388474.489388142712414 ], [ 425010.354229784454219, 4388474.489388142712414 ], [ 425010.354229784454219, 4388477.489388142712414 ], [ 425009.354229784454219, 4388477.489388142712414 ], [ 425009.354229784454219, 4388479.489388142712414 ], [ 425008.354229784454219, 4388479.489388142712414 ], [ 425008.354229784454219, 4388482.489388142712414 ], [ 425007.354229784454219, 4388482.489388142712414 ], [ 425007.354229784454219, 4388486.489388142712414 ], [ 425006.354229784454219, 4388486.489388142712414 ], [ 425006.354229784454219, 4388493.489388142712414 ], [ 425005.354229784454219, 4388493.489388142712414 ], [ 425005.354229784454219, 4388496.489388142712414 ], [ 425004.354229784454219, 4388496.489388142712414 ], [ 425004.354229784454219, 4388500.489388142712414 ], [ 425003.354229784454219, 4388500.489388142712414 ], [ 425003.354229784454219, 4388504.489388142712414 ], [ 425002.354229784454219, 4388504.489388142712414 ], [ 425002.354229784454219, 4388509.489388142712414 ], [ 425001.354229784454219, 4388509.489388142712414 ], [ 425001.354229784454219, 4388513.489388142712414 ], [ 425000.354229784454219, 4388513.489388142712414 ], [ 425000.354229784454219, 4388522.489388142712414 ], [ 425001.354229784454219, 4388522.489388142712414 ], [ 425001.354229784454219, 4388540.489388142712414 ], [ 425000.354229784454219, 4388540.489388142712414 ], [ 425000.354229784454219, 4388562.489388142712414 ], [ 425001.354229784454219, 4388562.489388142712414 ], [ 425001.354229784454219, 4388578.489388142712414 ], [ 425000.354229784454219, 4388578.489388142712414 ], [ 425000.354229784454219, 4388583.489388142712414 ], [ 424999.354229784454219, 4388583.489388142712414 ], [ 424999.354229784454219, 4388586.489388142712414 ], [ 424998.354229784454219, 4388586.489388142712414 ], [ 424998.354229784454219, 4388590.489388142712414 ], [ 424997.354229784454219, 4388590.489388142712414 ], [ 424997.354229784454219, 4388593.489388142712414 ], [ 424996.354229784454219, 4388593.489388142712414 ], [ 424996.354229784454219, 4388596.489388142712414 ], [ 424995.354229784454219, 4388596.489388142712414 ], [ 424995.354229784454219, 4388599.489388142712414 ], [ 424994.354229784454219, 4388599.489388142712414 ], [ 424994.354229784454219, 4388602.489388142712414 ], [ 424993.354229784454219, 4388602.489388142712414 ], [ 424993.354229784454219, 4388606.489388142712414 ], [ 424992.354229784454219, 4388606.489388142712414 ], [ 424992.354229784454219, 4388609.489388142712414 ], [ 424991.354229784454219, 4388609.489388142712414 ], [ 424991.354229784454219, 4388611.489388142712414 ], [ 424990.354229784454219, 4388611.489388142712414 ], [ 424990.354229784454219, 4388614.489388142712414 ], [ 424989.354229784454219, 4388614.489388142712414 ], [ 424989.354229784454219, 4388617.489388142712414 ], [ 424988.354229784454219, 4388617.489388142712414 ], [ 424988.354229784454219, 4388619.489388142712414 ], [ 424987.354229784454219, 4388619.489388142712414 ], [ 424987.354229784454219, 4388621.489388142712414 ], [ 424986.354229784454219, 4388621.489388142712414 ], [ 424986.354229784454219, 4388623.489388142712414 ], [ 424985.354229784454219, 4388623.489388142712414 ], [ 424985.354229784454219, 4388625.489388142712414 ], [ 424984.354229784454219, 4388625.489388142712414 ], [ 424984.354229784454219, 4388627.489388142712414 ], [ 424983.354229784454219, 4388627.489388142712414 ], [ 424983.354229784454219, 4388628.489388142712414 ], [ 424982.354229784454219, 4388628.489388142712414 ], [ 424982.354229784454219, 4388630.489388142712414 ], [ 424981.354229784454219, 4388630.489388142712414 ], [ 424981.354229784454219, 4388632.489388142712414 ], [ 424980.354229784454219, 4388632.489388142712414 ], [ 424980.354229784454219, 4388634.489388142712414 ], [ 424979.354229784454219, 4388634.489388142712414 ], [ 424979.354229784454219, 4388636.489388142712414 ], [ 424978.354229784454219, 4388636.489388142712414 ], [ 424978.354229784454219, 4388638.489388142712414 ], [ 424977.354229784454219, 4388638.489388142712414 ], [ 424977.354229784454219, 4388639.489388142712414 ], [ 424976.354229784454219, 4388639.489388142712414 ], [ 424976.354229784454219, 4388641.489388142712414 ], [ 424975.354229784454219, 4388641.489388142712414 ], [ 424975.354229784454219, 4388643.489388142712414 ], [ 424974.354229784454219, 4388643.489388142712414 ], [ 424974.354229784454219, 4388645.489388142712414 ], [ 424973.354229784454219, 4388645.489388142712414 ], [ 424973.354229784454219, 4388648.489388142712414 ], [ 424972.354229784454219, 4388648.489388142712414 ], [ 424972.354229784454219, 4388650.489388142712414 ], [ 424971.354229784454219, 4388650.489388142712414 ], [ 424971.354229784454219, 4388651.489388142712414 ], [ 424970.354229784454219, 4388651.489388142712414 ], [ 424970.354229784454219, 4388652.489388142712414 ], [ 424969.354229784454219, 4388652.489388142712414 ], [ 424969.354229784454219, 4388653.489388142712414 ], [ 424968.354229784454219, 4388653.489388142712414 ], [ 424968.354229784454219, 4388654.489388142712414 ], [ 424967.354229784454219, 4388654.489388142712414 ], [ 424967.354229784454219, 4388655.489388142712414 ], [ 424966.354229784454219, 4388655.489388142712414 ], [ 424966.354229784454219, 4388656.489388142712414 ], [ 424965.354229784454219, 4388656.489388142712414 ], [ 424965.354229784454219, 4388657.489388142712414 ], [ 424964.354229784454219, 4388657.489388142712414 ], [ 424964.354229784454219, 4388658.489388142712414 ], [ 424963.354229784454219, 4388658.489388142712414 ], [ 424963.354229784454219, 4388659.489388142712414 ], [ 424962.354229784454219, 4388659.489388142712414 ], [ 424962.354229784454219, 4388660.489388142712414 ], [ 424961.354229784454219, 4388660.489388142712414 ], [ 424961.354229784454219, 4388662.489388142712414 ], [ 424960.354229784454219, 4388662.489388142712414 ], [ 424960.354229784454219, 4388663.489388142712414 ], [ 424959.354229784454219, 4388663.489388142712414 ], [ 424959.354229784454219, 4388664.489388142712414 ], [ 424958.354229784454219, 4388664.489388142712414 ], [ 424958.354229784454219, 4388666.489388142712414 ], [ 424957.354229784454219, 4388666.489388142712414 ], [ 424957.354229784454219, 4388668.489388142712414 ], [ 424956.354229784454219, 4388668.489388142712414 ], [ 424956.354229784454219, 4388669.489388142712414 ], [ 424955.354229784454219, 4388669.489388142712414 ], [ 424955.354229784454219, 4388671.489388142712414 ], [ 424954.354229784454219, 4388671.489388142712414 ], [ 424954.354229784454219, 4388673.489388142712414 ], [ 424953.354229784454219, 4388673.489388142712414 ], [ 424953.354229784454219, 4388675.489388142712414 ], [ 424952.354229784454219, 4388675.489388142712414 ], [ 424952.354229784454219, 4388677.489388142712414 ], [ 424951.354229784454219, 4388677.489388142712414 ], [ 424951.354229784454219, 4388679.489388142712414 ], [ 424950.354229784454219, 4388679.489388142712414 ], [ 424950.354229784454219, 4388681.489388142712414 ], [ 424949.354229784454219, 4388681.489388142712414 ], [ 424949.354229784454219, 4388684.489388142712414 ], [ 424948.354229784454219, 4388684.489388142712414 ], [ 424948.354229784454219, 4388686.489388142712414 ], [ 424947.354229784454219, 4388686.489388142712414 ], [ 424947.354229784454219, 4388689.489388142712414 ], [ 424946.354229784454219, 4388689.489388142712414 ], [ 424946.354229784454219, 4388693.489388142712414 ], [ 424945.354229784454219, 4388693.489388142712414 ], [ 424945.354229784454219, 4388698.489388142712414 ], [ 424944.354229784454219, 4388698.489388142712414 ], [ 424944.354229784454219, 4388704.489388142712414 ], [ 424943.354229784454219, 4388704.489388142712414 ], [ 424943.354229784454219, 4388708.489388142712414 ], [ 424942.354229784454219, 4388708.489388142712414 ], [ 424942.354229784454219, 4388711.489388142712414 ], [ 424941.354229784454219, 4388711.489388142712414 ], [ 424941.354229784454219, 4388713.489388142712414 ], [ 424940.354229784454219, 4388713.489388142712414 ], [ 424940.354229784454219, 4388716.489388142712414 ], [ 424939.354229784454219, 4388716.489388142712414 ], [ 424939.354229784454219, 4388718.489388142712414 ], [ 424938.354229784454219, 4388718.489388142712414 ], [ 424938.354229784454219, 4388719.489388142712414 ], [ 424937.354229784454219, 4388719.489388142712414 ], [ 424937.354229784454219, 4388721.489388142712414 ], [ 424936.354229784454219, 4388721.489388142712414 ], [ 424936.354229784454219, 4388723.489388142712414 ], [ 424935.354229784454219, 4388723.489388142712414 ], [ 424935.354229784454219, 4388724.489388142712414 ], [ 424934.354229784454219, 4388724.489388142712414 ], [ 424934.354229784454219, 4388726.489388142712414 ], [ 424933.354229784454219, 4388726.489388142712414 ], [ 424933.354229784454219, 4388728.489388142712414 ], [ 424932.354229784454219, 4388728.489388142712414 ], [ 424932.354229784454219, 4388729.489388142712414 ], [ 424931.354229784454219, 4388729.489388142712414 ], [ 424931.354229784454219, 4388730.489388142712414 ], [ 424930.354229784454219, 4388730.489388142712414 ], [ 424930.354229784454219, 4388731.489388142712414 ], [ 424929.354229784454219, 4388731.489388142712414 ], [ 424929.354229784454219, 4388733.489388142712414 ], [ 424928.354229784454219, 4388733.489388142712414 ], [ 424928.354229784454219, 4388734.489388142712414 ], [ 424927.354229784454219, 4388734.489388142712414 ], [ 424927.354229784454219, 4388735.489388142712414 ], [ 424926.354229784454219, 4388735.489388142712414 ], [ 424926.354229784454219, 4388736.489388142712414 ], [ 424924.354229784454219, 4388736.489388142712414 ], [ 424924.354229784454219, 4388737.489388142712414 ], [ 424923.354229784454219, 4388737.489388142712414 ], [ 424923.354229784454219, 4388738.489388142712414 ], [ 424922.354229784454219, 4388738.489388142712414 ], [ 424922.354229784454219, 4388739.489388142712414 ], [ 424921.354229784454219, 4388739.489388142712414 ], [ 424921.354229784454219, 4388740.489388142712414 ], [ 424920.354229784454219, 4388740.489388142712414 ], [ 424920.354229784454219, 4388741.489388142712414 ], [ 424919.354229784454219, 4388741.489388142712414 ], [ 424919.354229784454219, 4388742.489388142712414 ], [ 424917.354229784454219, 4388742.489388142712414 ], [ 424917.354229784454219, 4388743.489388142712414 ], [ 424916.354229784454219, 4388743.489388142712414 ], [ 424916.354229784454219, 4388744.489388142712414 ], [ 424915.354229784454219, 4388744.489388142712414 ], [ 424915.354229784454219, 4388745.489388142712414 ], [ 424914.354229784454219, 4388745.489388142712414 ], [ 424914.354229784454219, 4388747.489388142712414 ], [ 424912.354229784454219, 4388747.489388142712414 ], [ 424912.354229784454219, 4388749.489388142712414 ], [ 424911.354229784454219, 4388749.489388142712414 ], [ 424911.354229784454219, 4388750.489388142712414 ], [ 424910.354229784454219, 4388750.489388142712414 ], [ 424910.354229784454219, 4388751.489388142712414 ], [ 424909.354229784454219, 4388751.489388142712414 ], [ 424909.354229784454219, 4388752.489388142712414 ], [ 424908.354229784454219, 4388752.489388142712414 ], [ 424908.354229784454219, 4388754.489388142712414 ], [ 424906.354229784454219, 4388754.489388142712414 ], [ 424906.354229784454219, 4388756.489388142712414 ], [ 424905.354229784454219, 4388756.489388142712414 ], [ 424905.354229784454219, 4388757.489388142712414 ], [ 424904.354229784454219, 4388757.489388142712414 ], [ 424904.354229784454219, 4388759.489388142712414 ], [ 424903.354229784454219, 4388759.489388142712414 ], [ 424903.354229784454219, 4388760.489388142712414 ], [ 424902.354229784454219, 4388760.489388142712414 ], [ 424902.354229784454219, 4388763.489388142712414 ], [ 424901.354229784454219, 4388763.489388142712414 ], [ 424901.354229784454219, 4388766.489388142712414 ], [ 424900.354229784454219, 4388766.489388142712414 ], [ 424900.354229784454219, 4388768.489388142712414 ], [ 424899.354229784454219, 4388768.489388142712414 ], [ 424899.354229784454219, 4388771.489388142712414 ], [ 424898.354229784454219, 4388771.489388142712414 ], [ 424898.354229784454219, 4388773.489388142712414 ], [ 424897.354229784454219, 4388773.489388142712414 ], [ 424897.354229784454219, 4388775.489388142712414 ], [ 424896.354229784454219, 4388775.489388142712414 ], [ 424896.354229784454219, 4388777.489388142712414 ], [ 424895.354229784454219, 4388777.489388142712414 ], [ 424895.354229784454219, 4388780.489388142712414 ], [ 424894.354229784454219, 4388780.489388142712414 ], [ 424894.354229784454219, 4388782.489388142712414 ], [ 424893.354229784454219, 4388782.489388142712414 ], [ 424893.354229784454219, 4388783.489388142712414 ], [ 424892.354229784454219, 4388783.489388142712414 ], [ 424892.354229784454219, 4388785.489388142712414 ], [ 424891.354229784454219, 4388785.489388142712414 ], [ 424891.354229784454219, 4388787.489388142712414 ], [ 424890.354229784454219, 4388787.489388142712414 ], [ 424890.354229784454219, 4388789.489388142712414 ], [ 424889.354229784454219, 4388789.489388142712414 ], [ 424889.354229784454219, 4388791.489388142712414 ], [ 424888.354229784454219, 4388791.489388142712414 ], [ 424888.354229784454219, 4388794.489388142712414 ], [ 424887.354229784454219, 4388794.489388142712414 ], [ 424887.354229784454219, 4388797.489388142712414 ], [ 424886.354229784454219, 4388797.489388142712414 ], [ 424886.354229784454219, 4388799.489388142712414 ], [ 424885.354229784454219, 4388799.489388142712414 ], [ 424885.354229784454219, 4388802.489388142712414 ], [ 424884.354229784454219, 4388802.489388142712414 ], [ 424884.354229784454219, 4388805.489388142712414 ], [ 424883.354229784454219, 4388805.489388142712414 ], [ 424883.354229784454219, 4388807.489388142712414 ], [ 424882.354229784454219, 4388807.489388142712414 ], [ 424882.354229784454219, 4388810.489388142712414 ], [ 424881.354229784454219, 4388810.489388142712414 ], [ 424881.354229784454219, 4388813.489388142712414 ], [ 424880.354229784454219, 4388813.489388142712414 ], [ 424880.354229784454219, 4388815.489388142712414 ], [ 424879.354229784454219, 4388815.489388142712414 ], [ 424879.354229784454219, 4388817.489388142712414 ], [ 424878.354229784454219, 4388817.489388142712414 ], [ 424878.354229784454219, 4388819.489388142712414 ], [ 424877.354229784454219, 4388819.489388142712414 ], [ 424877.354229784454219, 4388821.489388142712414 ], [ 424876.354229784454219, 4388821.489388142712414 ], [ 424876.354229784454219, 4388823.489388142712414 ], [ 424875.354229784454219, 4388823.489388142712414 ], [ 424875.354229784454219, 4388825.489388142712414 ], [ 424874.354229784454219, 4388825.489388142712414 ], [ 424874.354229784454219, 4388828.489388142712414 ], [ 424873.354229784454219, 4388828.489388142712414 ], [ 424873.354229784454219, 4388830.489388142712414 ], [ 424872.354229784454219, 4388830.489388142712414 ], [ 424872.354229784454219, 4388835.489388142712414 ], [ 424871.354229784454219, 4388835.489388142712414 ], [ 424871.354229784454219, 4388838.489388142712414 ], [ 424870.354229784454219, 4388838.489388142712414 ], [ 424870.354229784454219, 4388840.489388142712414 ], [ 424869.354229784454219, 4388840.489388142712414 ], [ 424869.354229784454219, 4388843.489388142712414 ], [ 424870.354229784454219, 4388843.489388142712414 ], [ 424870.354229784454219, 4388849.489388142712414 ], [ 424871.354229784454219, 4388849.489388142712414 ], [ 424871.354229784454219, 4388855.489388142712414 ], [ 424872.354229784454219, 4388855.489388142712414 ], [ 424872.354229784454219, 4388861.489388142712414 ], [ 424873.354229784454219, 4388861.489388142712414 ], [ 424873.354229784454219, 4388868.489388142712414 ], [ 424874.354229784454219, 4388868.489388142712414 ], [ 424874.354229784454219, 4388872.489388142712414 ], [ 424875.354229784454219, 4388872.489388142712414 ], [ 424875.354229784454219, 4388877.489388142712414 ], [ 424876.354229784454219, 4388877.489388142712414 ], [ 424876.354229784454219, 4388882.489388142712414 ], [ 424877.354229784454219, 4388882.489388142712414 ], [ 424877.354229784454219, 4388887.489388142712414 ], [ 424878.354229784454219, 4388887.489388142712414 ], [ 424878.354229784454219, 4388892.489388142712414 ], [ 424879.354229784454219, 4388892.489388142712414 ], [ 424879.354229784454219, 4388898.489388142712414 ], [ 424880.354229784454219, 4388898.489388142712414 ], [ 424880.354229784454219, 4388904.489388142712414 ], [ 424881.354229784454219, 4388904.489388142712414 ], [ 424881.354229784454219, 4388910.489388142712414 ], [ 424882.354229784454219, 4388910.489388142712414 ], [ 424882.354229784454219, 4388915.489388142712414 ], [ 424883.354229784454219, 4388915.489388142712414 ], [ 424883.354229784454219, 4388921.489388142712414 ], [ 424884.354229784454219, 4388921.489388142712414 ], [ 424884.354229784454219, 4388927.489388142712414 ], [ 424885.354229784454219, 4388927.489388142712414 ], [ 424885.354229784454219, 4388932.489388142712414 ], [ 424886.354229784454219, 4388932.489388142712414 ], [ 424886.354229784454219, 4388940.489388142712414 ], [ 424887.354229784454219, 4388940.489388142712414 ], [ 424887.354229784454219, 4388952.489388142712414 ], [ 424886.354229784454219, 4388952.489388142712414 ], [ 424886.354229784454219, 4388957.489388142712414 ], [ 424885.354229784454219, 4388957.489388142712414 ], [ 424885.354229784454219, 4388960.489388142712414 ], [ 424884.354229784454219, 4388960.489388142712414 ], [ 424884.354229784454219, 4388962.489388142712414 ], [ 424883.354229784454219, 4388962.489388142712414 ], [ 424883.354229784454219, 4388964.489388142712414 ], [ 424882.354229784454219, 4388964.489388142712414 ], [ 424882.354229784454219, 4388965.489388142712414 ], [ 424881.354229784454219, 4388965.489388142712414 ], [ 424881.354229784454219, 4388967.489388142712414 ], [ 424880.354229784454219, 4388967.489388142712414 ], [ 424880.354229784454219, 4388968.489388142712414 ], [ 424879.354229784454219, 4388968.489388142712414 ], [ 424879.354229784454219, 4388969.489388142712414 ], [ 424878.354229784454219, 4388969.489388142712414 ], [ 424878.354229784454219, 4388970.489388142712414 ], [ 424877.354229784454219, 4388970.489388142712414 ], [ 424877.354229784454219, 4388971.489388142712414 ], [ 424876.354229784454219, 4388971.489388142712414 ], [ 424876.354229784454219, 4388973.489388142712414 ], [ 424875.354229784454219, 4388973.489388142712414 ], [ 424875.354229784454219, 4388975.489388142712414 ], [ 424874.354229784454219, 4388975.489388142712414 ], [ 424874.354229784454219, 4388976.489388142712414 ], [ 424873.354229784454219, 4388976.489388142712414 ], [ 424873.354229784454219, 4388978.489388142712414 ], [ 424872.354229784454219, 4388978.489388142712414 ], [ 424872.354229784454219, 4388980.489388142712414 ], [ 424871.354229784454219, 4388980.489388142712414 ], [ 424871.354229784454219, 4388981.489388142712414 ], [ 424870.354229784454219, 4388981.489388142712414 ], [ 424870.354229784454219, 4388983.489388142712414 ], [ 424869.354229784454219, 4388983.489388142712414 ], [ 424869.354229784454219, 4388984.489388142712414 ], [ 424868.354229784454219, 4388984.489388142712414 ], [ 424868.354229784454219, 4388986.489388142712414 ], [ 424867.354229784454219, 4388986.489388142712414 ], [ 424867.354229784454219, 4388987.489388142712414 ], [ 424866.354229784454219, 4388987.489388142712414 ], [ 424866.354229784454219, 4388989.489388142712414 ], [ 424865.354229784454219, 4388989.489388142712414 ], [ 424865.354229784454219, 4388991.489388142712414 ], [ 424864.354229784454219, 4388991.489388142712414 ], [ 424864.354229784454219, 4388993.489388142712414 ], [ 424863.354229784454219, 4388993.489388142712414 ], [ 424863.354229784454219, 4388995.489388142712414 ], [ 424862.354229784454219, 4388995.489388142712414 ], [ 424862.354229784454219, 4388997.489388142712414 ], [ 424861.354229784454219, 4388997.489388142712414 ], [ 424861.354229784454219, 4389000.489388142712414 ], [ 424860.354229784454219, 4389000.489388142712414 ], [ 424860.354229784454219, 4389002.489388142712414 ], [ 424859.354229784454219, 4389002.489388142712414 ], [ 424859.354229784454219, 4389005.489388142712414 ], [ 424858.354229784454219, 4389005.489388142712414 ], [ 424858.354229784454219, 4389008.489388142712414 ], [ 424857.354229784454219, 4389008.489388142712414 ], [ 424857.354229784454219, 4389012.489388142712414 ], [ 424856.354229784454219, 4389012.489388142712414 ], [ 424856.354229784454219, 4389018.489388142712414 ], [ 424855.354229784454219, 4389018.489388142712414 ], [ 424855.354229784454219, 4389024.489388142712414 ], [ 424854.354229784454219, 4389024.489388142712414 ], [ 424854.354229784454219, 4389028.489388142712414 ], [ 424853.354229784454219, 4389028.489388142712414 ], [ 424853.354229784454219, 4389031.489388142712414 ], [ 424852.354229784454219, 4389031.489388142712414 ], [ 424852.354229784454219, 4389036.489388142712414 ], [ 424851.354229784454219, 4389036.489388142712414 ], [ 424851.354229784454219, 4389039.489388142712414 ], [ 424850.354229784454219, 4389039.489388142712414 ], [ 424850.354229784454219, 4389042.489388142712414 ], [ 424849.354229784454219, 4389042.489388142712414 ], [ 424849.354229784454219, 4389045.489388142712414 ], [ 424848.354229784454219, 4389045.489388142712414 ], [ 424848.354229784454219, 4389048.489388142712414 ], [ 424847.354229784454219, 4389048.489388142712414 ], [ 424847.354229784454219, 4389050.489388142712414 ], [ 424846.354229784454219, 4389050.489388142712414 ], [ 424846.354229784454219, 4389053.489388142712414 ], [ 424845.354229784454219, 4389053.489388142712414 ], [ 424845.354229784454219, 4389055.489388142712414 ], [ 424844.354229784454219, 4389055.489388142712414 ], [ 424844.354229784454219, 4389056.489388142712414 ], [ 424843.354229784454219, 4389056.489388142712414 ], [ 424843.354229784454219, 4389057.489388142712414 ], [ 424842.354229784454219, 4389057.489388142712414 ], [ 424842.354229784454219, 4389058.489388142712414 ], [ 424841.354229784454219, 4389058.489388142712414 ], [ 424841.354229784454219, 4389060.489388142712414 ], [ 424840.354229784454219, 4389060.489388142712414 ], [ 424840.354229784454219, 4389061.489388142712414 ], [ 424839.354229784454219, 4389061.489388142712414 ], [ 424839.354229784454219, 4389062.489388142712414 ], [ 424838.354229784454219, 4389062.489388142712414 ], [ 424838.354229784454219, 4389063.489388142712414 ], [ 424837.354229784454219, 4389063.489388142712414 ], [ 424837.354229784454219, 4389064.489388142712414 ], [ 424836.354229784454219, 4389064.489388142712414 ], [ 424836.354229784454219, 4389065.489388142712414 ], [ 424835.354229784454219, 4389065.489388142712414 ], [ 424835.354229784454219, 4389066.489388142712414 ], [ 424834.354229784454219, 4389066.489388142712414 ], [ 424834.354229784454219, 4389067.489388142712414 ], [ 424833.354229784454219, 4389067.489388142712414 ], [ 424833.354229784454219, 4389068.489388142712414 ], [ 424832.354229784454219, 4389068.489388142712414 ], [ 424832.354229784454219, 4389070.489388142712414 ], [ 424831.354229784454219, 4389070.489388142712414 ], [ 424831.354229784454219, 4389071.489388142712414 ], [ 424830.354229784454219, 4389071.489388142712414 ], [ 424830.354229784454219, 4389072.489388142712414 ], [ 424829.354229784454219, 4389072.489388142712414 ], [ 424829.354229784454219, 4389073.489388142712414 ], [ 424828.354229784454219, 4389073.489388142712414 ], [ 424828.354229784454219, 4389074.489388142712414 ], [ 424827.354229784454219, 4389074.489388142712414 ], [ 424827.354229784454219, 4389075.489388142712414 ], [ 424825.354229784454219, 4389075.489388142712414 ], [ 424825.354229784454219, 4389076.489388142712414 ], [ 424824.354229784454219, 4389076.489388142712414 ], [ 424824.354229784454219, 4389077.489388142712414 ], [ 424823.354229784454219, 4389077.489388142712414 ], [ 424823.354229784454219, 4389078.489388142712414 ], [ 424822.354229784454219, 4389078.489388142712414 ], [ 424822.354229784454219, 4389079.489388142712414 ], [ 424821.354229784454219, 4389079.489388142712414 ], [ 424821.354229784454219, 4389080.489388142712414 ], [ 424819.354229784454219, 4389080.489388142712414 ], [ 424819.354229784454219, 4389081.489388142712414 ], [ 424818.354229784454219, 4389081.489388142712414 ], [ 424818.354229784454219, 4389082.489388142712414 ], [ 424816.354229784454219, 4389082.489388142712414 ], [ 424816.354229784454219, 4389083.489388142712414 ], [ 424814.354229784454219, 4389083.489388142712414 ], [ 424814.354229784454219, 4389084.489388142712414 ], [ 424812.354229784454219, 4389084.489388142712414 ], [ 424812.354229784454219, 4389085.489388142712414 ], [ 424810.354229784454219, 4389085.489388142712414 ], [ 424810.354229784454219, 4389086.489388142712414 ], [ 424808.354229784454219, 4389086.489388142712414 ], [ 424808.354229784454219, 4389087.489388142712414 ], [ 424806.354229784454219, 4389087.489388142712414 ], [ 424806.354229784454219, 4389088.489388142712414 ], [ 424804.354229784454219, 4389088.489388142712414 ], [ 424804.354229784454219, 4389089.489388142712414 ], [ 424801.354229784454219, 4389089.489388142712414 ], [ 424801.354229784454219, 4389090.489388142712414 ], [ 424799.354229784454219, 4389090.489388142712414 ], [ 424799.354229784454219, 4389091.489388142712414 ], [ 424797.354229784454219, 4389091.489388142712414 ], [ 424797.354229784454219, 4389092.489388142712414 ], [ 424794.354229784454219, 4389092.489388142712414 ], [ 424794.354229784454219, 4389093.489388142712414 ], [ 424792.354229784454219, 4389093.489388142712414 ], [ 424792.354229784454219, 4389094.489388142712414 ], [ 424789.354229784454219, 4389094.489388142712414 ], [ 424789.354229784454219, 4389095.489388142712414 ], [ 424786.354229784454219, 4389095.489388142712414 ], [ 424786.354229784454219, 4389096.489388142712414 ], [ 424784.354229784454219, 4389096.489388142712414 ], [ 424784.354229784454219, 4389097.489388142712414 ], [ 424782.354229784454219, 4389097.489388142712414 ], [ 424782.354229784454219, 4389098.489388142712414 ], [ 424781.354229784454219, 4389098.489388142712414 ], [ 424781.354229784454219, 4389099.489388142712414 ], [ 424780.354229784454219, 4389099.489388142712414 ], [ 424780.354229784454219, 4389100.489388142712414 ], [ 424778.354229784454219, 4389100.489388142712414 ], [ 424778.354229784454219, 4389101.489388142712414 ], [ 424777.354229784454219, 4389101.489388142712414 ], [ 424777.354229784454219, 4389102.489388142712414 ], [ 424776.354229784454219, 4389102.489388142712414 ], [ 424776.354229784454219, 4389103.489388142712414 ], [ 424775.354229784454219, 4389103.489388142712414 ], [ 424775.354229784454219, 4389104.489388142712414 ], [ 424773.354229784454219, 4389104.489388142712414 ], [ 424773.354229784454219, 4389105.489388142712414 ], [ 424772.354229784454219, 4389105.489388142712414 ], [ 424772.354229784454219, 4389106.489388142712414 ], [ 424771.354229784454219, 4389106.489388142712414 ], [ 424771.354229784454219, 4389107.489388142712414 ], [ 424770.354229784454219, 4389107.489388142712414 ], [ 424770.354229784454219, 4389108.489388142712414 ], [ 424769.354229784454219, 4389108.489388142712414 ], [ 424769.354229784454219, 4389109.489388142712414 ], [ 424768.354229784454219, 4389109.489388142712414 ], [ 424768.354229784454219, 4389110.489388142712414 ], [ 424767.354229784454219, 4389110.489388142712414 ], [ 424767.354229784454219, 4389112.489388142712414 ], [ 424765.354229784454219, 4389112.489388142712414 ], [ 424765.354229784454219, 4389113.489388142712414 ], [ 424764.354229784454219, 4389113.489388142712414 ], [ 424764.354229784454219, 4389115.489388142712414 ], [ 424763.354229784454219, 4389115.489388142712414 ], [ 424763.354229784454219, 4389116.489388142712414 ], [ 424762.354229784454219, 4389116.489388142712414 ], [ 424762.354229784454219, 4389118.489388142712414 ], [ 424761.354229784454219, 4389118.489388142712414 ], [ 424761.354229784454219, 4389119.489388142712414 ], [ 424760.354229784454219, 4389119.489388142712414 ], [ 424760.354229784454219, 4389121.489388142712414 ], [ 424759.354229784454219, 4389121.489388142712414 ], [ 424759.354229784454219, 4389124.489388142712414 ], [ 424758.354229784454219, 4389124.489388142712414 ], [ 424758.354229784454219, 4389127.489388142712414 ], [ 424757.354229784454219, 4389127.489388142712414 ], [ 424757.354229784454219, 4389129.489388142712414 ], [ 424756.354229784454219, 4389129.489388142712414 ], [ 424756.354229784454219, 4389130.489388142712414 ], [ 424755.354229784454219, 4389130.489388142712414 ], [ 424755.354229784454219, 4389132.489388142712414 ], [ 424754.354229784454219, 4389132.489388142712414 ], [ 424754.354229784454219, 4389133.489388142712414 ], [ 424753.354229784454219, 4389133.489388142712414 ], [ 424753.354229784454219, 4389134.489388142712414 ], [ 424752.354229784454219, 4389134.489388142712414 ], [ 424752.354229784454219, 4389136.489388142712414 ], [ 424751.354229784454219, 4389136.489388142712414 ], [ 424751.354229784454219, 4389137.489388142712414 ], [ 424750.354229784454219, 4389137.489388142712414 ], [ 424750.354229784454219, 4389138.489388142712414 ], [ 424749.354229784454219, 4389138.489388142712414 ], [ 424749.354229784454219, 4389139.489388142712414 ], [ 424748.354229784454219, 4389139.489388142712414 ], [ 424748.354229784454219, 4389140.489388142712414 ], [ 424747.354229784454219, 4389140.489388142712414 ], [ 424747.354229784454219, 4389141.489388142712414 ], [ 424746.354229784454219, 4389141.489388142712414 ], [ 424746.354229784454219, 4389142.489388142712414 ], [ 424745.354229784454219, 4389142.489388142712414 ], [ 424745.354229784454219, 4389143.489388142712414 ], [ 424744.354229784454219, 4389143.489388142712414 ], [ 424744.354229784454219, 4389144.489388142712414 ], [ 424743.354229784454219, 4389144.489388142712414 ], [ 424743.354229784454219, 4389145.489388142712414 ], [ 424742.354229784454219, 4389145.489388142712414 ], [ 424742.354229784454219, 4389146.489388142712414 ], [ 424740.354229784454219, 4389146.489388142712414 ], [ 424740.354229784454219, 4389147.489388142712414 ], [ 424738.354229784454219, 4389147.489388142712414 ], [ 424738.354229784454219, 4389148.489388142712414 ], [ 424734.354229784454219, 4389148.489388142712414 ], [ 424734.354229784454219, 4389149.489388142712414 ], [ 424731.354229784454219, 4389149.489388142712414 ], [ 424731.354229784454219, 4389150.489388142712414 ], [ 424726.354229784454219, 4389150.489388142712414 ], [ 424726.354229784454219, 4389151.489388142712414 ], [ 424722.354229784454219, 4389151.489388142712414 ], [ 424722.354229784454219, 4389152.489388142712414 ], [ 424717.354229784454219, 4389152.489388142712414 ], [ 424717.354229784454219, 4389153.489388142712414 ], [ 424712.354229784454219, 4389153.489388142712414 ], [ 424712.354229784454219, 4389154.489388142712414 ], [ 424707.354229784454219, 4389154.489388142712414 ], [ 424707.354229784454219, 4389155.489388142712414 ], [ 424701.354229784454219, 4389155.489388142712414 ], [ 424701.354229784454219, 4389156.489388142712414 ], [ 424693.354229784454219, 4389156.489388142712414 ], [ 424693.354229784454219, 4389157.489388142712414 ], [ 424683.354229784454219, 4389157.489388142712414 ], [ 424683.354229784454219, 4389158.489388142712414 ], [ 424675.354229784454219, 4389158.489388142712414 ], [ 424675.354229784454219, 4389159.489388142712414 ], [ 424668.354229784454219, 4389159.489388142712414 ], [ 424668.354229784454219, 4389160.489388142712414 ], [ 424663.354229784454219, 4389160.489388142712414 ], [ 424663.354229784454219, 4389161.489388142712414 ], [ 424656.354229784454219, 4389161.489388142712414 ], [ 424656.354229784454219, 4389162.489388142712414 ], [ 424647.354229784454219, 4389162.489388142712414 ], [ 424647.354229784454219, 4389163.489388142712414 ], [ 424640.354229784454219, 4389163.489388142712414 ], [ 424640.354229784454219, 4389164.489388142712414 ], [ 424633.354229784454219, 4389164.489388142712414 ], [ 424633.354229784454219, 4389165.489388142712414 ], [ 424620.354229784454219, 4389165.489388142712414 ], [ 424620.354229784454219, 4389166.489388142712414 ], [ 424604.354229784454219, 4389166.489388142712414 ], [ 424604.354229784454219, 4389167.489388142712414 ], [ 424602.354229784454219, 4389167.489388142712414 ] ], [ [ 424610.354229784454219, 4389165.489388142712414 ], [ 424612.354229784454219, 4389165.489388142712414 ], [ 424612.354229784454219, 4389164.489388142712414 ], [ 424610.354229784454219, 4389164.489388142712414 ], [ 424610.354229784454219, 4389165.489388142712414 ] ], [ [ 424835.354229784454219, 4388987.489388142712414 ], [ 424836.354229784454219, 4388987.489388142712414 ], [ 424836.354229784454219, 4388986.489388142712414 ], [ 424837.354229784454219, 4388986.489388142712414 ], [ 424837.354229784454219, 4388985.489388142712414 ], [ 424844.354229784454219, 4388985.489388142712414 ], [ 424844.354229784454219, 4388983.489388142712414 ], [ 424845.354229784454219, 4388983.489388142712414 ], [ 424845.354229784454219, 4388981.489388142712414 ], [ 424846.354229784454219, 4388981.489388142712414 ], [ 424846.354229784454219, 4388979.489388142712414 ], [ 424847.354229784454219, 4388979.489388142712414 ], [ 424847.354229784454219, 4388976.489388142712414 ], [ 424848.354229784454219, 4388976.489388142712414 ], [ 424848.354229784454219, 4388973.489388142712414 ], [ 424849.354229784454219, 4388973.489388142712414 ], [ 424849.354229784454219, 4388971.489388142712414 ], [ 424850.354229784454219, 4388971.489388142712414 ], [ 424850.354229784454219, 4388969.489388142712414 ], [ 424851.354229784454219, 4388969.489388142712414 ], [ 424851.354229784454219, 4388967.489388142712414 ], [ 424852.354229784454219, 4388967.489388142712414 ], [ 424852.354229784454219, 4388965.489388142712414 ], [ 424853.354229784454219, 4388965.489388142712414 ], [ 424853.354229784454219, 4388963.489388142712414 ], [ 424854.354229784454219, 4388963.489388142712414 ], [ 424854.354229784454219, 4388961.489388142712414 ], [ 424855.354229784454219, 4388961.489388142712414 ], [ 424855.354229784454219, 4388959.489388142712414 ], [ 424856.354229784454219, 4388959.489388142712414 ], [ 424856.354229784454219, 4388957.489388142712414 ], [ 424857.354229784454219, 4388957.489388142712414 ], [ 424857.354229784454219, 4388955.489388142712414 ], [ 424858.354229784454219, 4388955.489388142712414 ], [ 424858.354229784454219, 4388952.489388142712414 ], [ 424859.354229784454219, 4388952.489388142712414 ], [ 424859.354229784454219, 4388949.489388142712414 ], [ 424860.354229784454219, 4388949.489388142712414 ], [ 424860.354229784454219, 4388945.489388142712414 ], [ 424861.354229784454219, 4388945.489388142712414 ], [ 424861.354229784454219, 4388929.489388142712414 ], [ 424860.354229784454219, 4388929.489388142712414 ], [ 424860.354229784454219, 4388925.489388142712414 ], [ 424859.354229784454219, 4388925.489388142712414 ], [ 424859.354229784454219, 4388922.489388142712414 ], [ 424858.354229784454219, 4388922.489388142712414 ], [ 424858.354229784454219, 4388919.489388142712414 ], [ 424857.354229784454219, 4388919.489388142712414 ], [ 424857.354229784454219, 4388916.489388142712414 ], [ 424856.354229784454219, 4388916.489388142712414 ], [ 424856.354229784454219, 4388914.489388142712414 ], [ 424855.354229784454219, 4388914.489388142712414 ], [ 424855.354229784454219, 4388912.489388142712414 ], [ 424854.354229784454219, 4388912.489388142712414 ], [ 424854.354229784454219, 4388910.489388142712414 ], [ 424853.354229784454219, 4388910.489388142712414 ], [ 424853.354229784454219, 4388907.489388142712414 ], [ 424852.354229784454219, 4388907.489388142712414 ], [ 424852.354229784454219, 4388905.489388142712414 ], [ 424851.354229784454219, 4388905.489388142712414 ], [ 424851.354229784454219, 4388902.489388142712414 ], [ 424850.354229784454219, 4388902.489388142712414 ], [ 424850.354229784454219, 4388899.489388142712414 ], [ 424849.354229784454219, 4388899.489388142712414 ], [ 424849.354229784454219, 4388896.489388142712414 ], [ 424848.354229784454219, 4388896.489388142712414 ], [ 424848.354229784454219, 4388893.489388142712414 ], [ 424847.354229784454219, 4388893.489388142712414 ], [ 424847.354229784454219, 4388888.489388142712414 ], [ 424846.354229784454219, 4388888.489388142712414 ], [ 424846.354229784454219, 4388881.489388142712414 ], [ 424845.354229784454219, 4388881.489388142712414 ], [ 424845.354229784454219, 4388868.489388142712414 ], [ 424846.354229784454219, 4388868.489388142712414 ], [ 424846.354229784454219, 4388864.489388142712414 ], [ 424845.354229784454219, 4388864.489388142712414 ], [ 424845.354229784454219, 4388866.489388142712414 ], [ 424844.354229784454219, 4388866.489388142712414 ], [ 424844.354229784454219, 4388869.489388142712414 ], [ 424843.354229784454219, 4388869.489388142712414 ], [ 424843.354229784454219, 4388872.489388142712414 ], [ 424842.354229784454219, 4388872.489388142712414 ], [ 424842.354229784454219, 4388874.489388142712414 ], [ 424841.354229784454219, 4388874.489388142712414 ], [ 424841.354229784454219, 4388877.489388142712414 ], [ 424840.354229784454219, 4388877.489388142712414 ], [ 424840.354229784454219, 4388879.489388142712414 ], [ 424839.354229784454219, 4388879.489388142712414 ], [ 424839.354229784454219, 4388881.489388142712414 ], [ 424838.354229784454219, 4388881.489388142712414 ], [ 424838.354229784454219, 4388883.489388142712414 ], [ 424837.354229784454219, 4388883.489388142712414 ], [ 424837.354229784454219, 4388886.489388142712414 ], [ 424836.354229784454219, 4388886.489388142712414 ], [ 424836.354229784454219, 4388888.489388142712414 ], [ 424835.354229784454219, 4388888.489388142712414 ], [ 424835.354229784454219, 4388890.489388142712414 ], [ 424834.354229784454219, 4388890.489388142712414 ], [ 424834.354229784454219, 4388891.489388142712414 ], [ 424833.354229784454219, 4388891.489388142712414 ], [ 424833.354229784454219, 4388893.489388142712414 ], [ 424832.354229784454219, 4388893.489388142712414 ], [ 424832.354229784454219, 4388895.489388142712414 ], [ 424831.354229784454219, 4388895.489388142712414 ], [ 424831.354229784454219, 4388897.489388142712414 ], [ 424830.354229784454219, 4388897.489388142712414 ], [ 424830.354229784454219, 4388898.489388142712414 ], [ 424829.354229784454219, 4388898.489388142712414 ], [ 424829.354229784454219, 4388901.489388142712414 ], [ 424828.354229784454219, 4388901.489388142712414 ], [ 424828.354229784454219, 4388904.489388142712414 ], [ 424827.354229784454219, 4388904.489388142712414 ], [ 424827.354229784454219, 4388907.489388142712414 ], [ 424826.354229784454219, 4388907.489388142712414 ], [ 424826.354229784454219, 4388911.489388142712414 ], [ 424825.354229784454219, 4388911.489388142712414 ], [ 424825.354229784454219, 4388915.489388142712414 ], [ 424824.354229784454219, 4388915.489388142712414 ], [ 424824.354229784454219, 4388920.489388142712414 ], [ 424823.354229784454219, 4388920.489388142712414 ], [ 424823.354229784454219, 4388942.489388142712414 ], [ 424824.354229784454219, 4388942.489388142712414 ], [ 424824.354229784454219, 4388965.489388142712414 ], [ 424823.354229784454219, 4388965.489388142712414 ], [ 424823.354229784454219, 4388969.489388142712414 ], [ 424824.354229784454219, 4388969.489388142712414 ], [ 424824.354229784454219, 4388970.489388142712414 ], [ 424825.354229784454219, 4388970.489388142712414 ], [ 424825.354229784454219, 4388971.489388142712414 ], [ 424826.354229784454219, 4388971.489388142712414 ], [ 424826.354229784454219, 4388973.489388142712414 ], [ 424827.354229784454219, 4388973.489388142712414 ], [ 424827.354229784454219, 4388974.489388142712414 ], [ 424828.354229784454219, 4388974.489388142712414 ], [ 424828.354229784454219, 4388975.489388142712414 ], [ 424829.354229784454219, 4388975.489388142712414 ], [ 424829.354229784454219, 4388977.489388142712414 ], [ 424830.354229784454219, 4388977.489388142712414 ], [ 424830.354229784454219, 4388978.489388142712414 ], [ 424831.354229784454219, 4388978.489388142712414 ], [ 424831.354229784454219, 4388980.489388142712414 ], [ 424832.354229784454219, 4388980.489388142712414 ], [ 424832.354229784454219, 4388981.489388142712414 ], [ 424833.354229784454219, 4388981.489388142712414 ], [ 424833.354229784454219, 4388983.489388142712414 ], [ 424834.354229784454219, 4388983.489388142712414 ], [ 424834.354229784454219, 4388986.489388142712414 ], [ 424835.354229784454219, 4388986.489388142712414 ], [ 424835.354229784454219, 4388987.489388142712414 ] ], [ [ 424864.354229784454219, 4388881.489388142712414 ], [ 424865.354229784454219, 4388881.489388142712414 ], [ 424865.354229784454219, 4388866.489388142712414 ], [ 424864.354229784454219, 4388866.489388142712414 ], [ 424864.354229784454219, 4388881.489388142712414 ] ], [ [ 424934.354229784454219, 4388562.489388142712414 ], [ 424935.354229784454219, 4388562.489388142712414 ], [ 424935.354229784454219, 4388561.489388142712414 ], [ 424934.354229784454219, 4388561.489388142712414 ], [ 424934.354229784454219, 4388562.489388142712414 ] ], [ [ 424935.354229784454219, 4388560.489388142712414 ], [ 424936.354229784454219, 4388560.489388142712414 ], [ 424936.354229784454219, 4388556.489388142712414 ], [ 424935.354229784454219, 4388556.489388142712414 ], [ 424935.354229784454219, 4388560.489388142712414 ] ], [ [ 424936.354229784454219, 4388555.489388142712414 ], [ 424937.354229784454219, 4388555.489388142712414 ], [ 424937.354229784454219, 4388549.489388142712414 ], [ 424936.354229784454219, 4388549.489388142712414 ], [ 424936.354229784454219, 4388555.489388142712414 ] ], [ [ 424923.354229784454219, 4388551.489388142712414 ], [ 424924.354229784454219, 4388551.489388142712414 ], [ 424924.354229784454219, 4388550.489388142712414 ], [ 424923.354229784454219, 4388550.489388142712414 ], [ 424923.354229784454219, 4388551.489388142712414 ] ], [ [ 424924.354229784454219, 4388549.489388142712414 ], [ 424925.354229784454219, 4388549.489388142712414 ], [ 424925.354229784454219, 4388548.489388142712414 ], [ 424926.354229784454219, 4388548.489388142712414 ], [ 424926.354229784454219, 4388545.489388142712414 ], [ 424927.354229784454219, 4388545.489388142712414 ], [ 424927.354229784454219, 4388537.489388142712414 ], [ 424928.354229784454219, 4388537.489388142712414 ], [ 424928.354229784454219, 4388511.489388142712414 ], [ 424927.354229784454219, 4388511.489388142712414 ], [ 424927.354229784454219, 4388517.489388142712414 ], [ 424926.354229784454219, 4388517.489388142712414 ], [ 424926.354229784454219, 4388521.489388142712414 ], [ 424925.354229784454219, 4388521.489388142712414 ], [ 424925.354229784454219, 4388525.489388142712414 ], [ 424924.354229784454219, 4388525.489388142712414 ], [ 424924.354229784454219, 4388536.489388142712414 ], [ 424923.354229784454219, 4388536.489388142712414 ], [ 424923.354229784454219, 4388545.489388142712414 ], [ 424924.354229784454219, 4388545.489388142712414 ], [ 424924.354229784454219, 4388549.489388142712414 ] ], [ [ 424919.354229784454219, 4388546.489388142712414 ], [ 424920.354229784454219, 4388546.489388142712414 ], [ 424920.354229784454219, 4388540.489388142712414 ], [ 424919.354229784454219, 4388540.489388142712414 ], [ 424919.354229784454219, 4388546.489388142712414 ] ], [ [ 424935.354229784454219, 4388542.489388142712414 ], [ 424936.354229784454219, 4388542.489388142712414 ], [ 424936.354229784454219, 4388536.489388142712414 ], [ 424937.354229784454219, 4388536.489388142712414 ], [ 424937.354229784454219, 4388530.489388142712414 ], [ 424938.354229784454219, 4388530.489388142712414 ], [ 424938.354229784454219, 4388524.489388142712414 ], [ 424939.354229784454219, 4388524.489388142712414 ], [ 424939.354229784454219, 4388506.489388142712414 ], [ 424938.354229784454219, 4388506.489388142712414 ], [ 424938.354229784454219, 4388490.489388142712414 ], [ 424937.354229784454219, 4388490.489388142712414 ], [ 424937.354229784454219, 4388481.489388142712414 ], [ 424936.354229784454219, 4388481.489388142712414 ], [ 424936.354229784454219, 4388475.489388142712414 ], [ 424935.354229784454219, 4388475.489388142712414 ], [ 424935.354229784454219, 4388466.489388142712414 ], [ 424934.354229784454219, 4388466.489388142712414 ], [ 424934.354229784454219, 4388460.489388142712414 ], [ 424933.354229784454219, 4388460.489388142712414 ], [ 424933.354229784454219, 4388456.489388142712414 ], [ 424932.354229784454219, 4388456.489388142712414 ], [ 424932.354229784454219, 4388453.489388142712414 ], [ 424931.354229784454219, 4388453.489388142712414 ], [ 424931.354229784454219, 4388478.489388142712414 ], [ 424932.354229784454219, 4388478.489388142712414 ], [ 424932.354229784454219, 4388482.489388142712414 ], [ 424933.354229784454219, 4388482.489388142712414 ], [ 424933.354229784454219, 4388487.489388142712414 ], [ 424934.354229784454219, 4388487.489388142712414 ], [ 424934.354229784454219, 4388536.489388142712414 ], [ 424935.354229784454219, 4388536.489388142712414 ], [ 424935.354229784454219, 4388542.489388142712414 ] ], [ [ 424908.354229784454219, 4388538.489388142712414 ], [ 424909.354229784454219, 4388538.489388142712414 ], [ 424909.354229784454219, 4388535.489388142712414 ], [ 424908.354229784454219, 4388535.489388142712414 ], [ 424908.354229784454219, 4388538.489388142712414 ] ], [ [ 424911.354229784454219, 4388536.489388142712414 ], [ 424912.354229784454219, 4388536.489388142712414 ], [ 424912.354229784454219, 4388533.489388142712414 ], [ 424913.354229784454219, 4388533.489388142712414 ], [ 424913.354229784454219, 4388529.489388142712414 ], [ 424914.354229784454219, 4388529.489388142712414 ], [ 424914.354229784454219, 4388527.489388142712414 ], [ 424915.354229784454219, 4388527.489388142712414 ], [ 424915.354229784454219, 4388525.489388142712414 ], [ 424916.354229784454219, 4388525.489388142712414 ], [ 424916.354229784454219, 4388523.489388142712414 ], [ 424917.354229784454219, 4388523.489388142712414 ], [ 424917.354229784454219, 4388517.489388142712414 ], [ 424918.354229784454219, 4388517.489388142712414 ], [ 424918.354229784454219, 4388494.489388142712414 ], [ 424919.354229784454219, 4388494.489388142712414 ], [ 424919.354229784454219, 4388478.489388142712414 ], [ 424918.354229784454219, 4388478.489388142712414 ], [ 424918.354229784454219, 4388461.489388142712414 ], [ 424917.354229784454219, 4388461.489388142712414 ], [ 424917.354229784454219, 4388465.489388142712414 ], [ 424916.354229784454219, 4388465.489388142712414 ], [ 424916.354229784454219, 4388469.489388142712414 ], [ 424915.354229784454219, 4388469.489388142712414 ], [ 424915.354229784454219, 4388473.489388142712414 ], [ 424914.354229784454219, 4388473.489388142712414 ], [ 424914.354229784454219, 4388508.489388142712414 ], [ 424913.354229784454219, 4388508.489388142712414 ], [ 424913.354229784454219, 4388515.489388142712414 ], [ 424912.354229784454219, 4388515.489388142712414 ], [ 424912.354229784454219, 4388520.489388142712414 ], [ 424911.354229784454219, 4388520.489388142712414 ], [ 424911.354229784454219, 4388536.489388142712414 ] ], [ [ 424914.354229784454219, 4388534.489388142712414 ], [ 424915.354229784454219, 4388534.489388142712414 ], [ 424915.354229784454219, 4388533.489388142712414 ], [ 424916.354229784454219, 4388533.489388142712414 ], [ 424916.354229784454219, 4388531.489388142712414 ], [ 424917.354229784454219, 4388531.489388142712414 ], [ 424917.354229784454219, 4388528.489388142712414 ], [ 424916.354229784454219, 4388528.489388142712414 ], [ 424916.354229784454219, 4388530.489388142712414 ], [ 424915.354229784454219, 4388530.489388142712414 ], [ 424915.354229784454219, 4388532.489388142712414 ], [ 424914.354229784454219, 4388532.489388142712414 ], [ 424914.354229784454219, 4388534.489388142712414 ] ], [ [ 424907.354229784454219, 4388532.489388142712414 ], [ 424908.354229784454219, 4388532.489388142712414 ], [ 424908.354229784454219, 4388520.489388142712414 ], [ 424909.354229784454219, 4388520.489388142712414 ], [ 424909.354229784454219, 4388513.489388142712414 ], [ 424910.354229784454219, 4388513.489388142712414 ], [ 424910.354229784454219, 4388507.489388142712414 ], [ 424911.354229784454219, 4388507.489388142712414 ], [ 424911.354229784454219, 4388490.489388142712414 ], [ 424912.354229784454219, 4388490.489388142712414 ], [ 424912.354229784454219, 4388481.489388142712414 ], [ 424911.354229784454219, 4388481.489388142712414 ], [ 424911.354229784454219, 4388473.489388142712414 ], [ 424910.354229784454219, 4388473.489388142712414 ], [ 424910.354229784454219, 4388483.489388142712414 ], [ 424909.354229784454219, 4388483.489388142712414 ], [ 424909.354229784454219, 4388491.489388142712414 ], [ 424908.354229784454219, 4388491.489388142712414 ], [ 424908.354229784454219, 4388508.489388142712414 ], [ 424907.354229784454219, 4388508.489388142712414 ], [ 424907.354229784454219, 4388516.489388142712414 ], [ 424906.354229784454219, 4388516.489388142712414 ], [ 424906.354229784454219, 4388525.489388142712414 ], [ 424907.354229784454219, 4388525.489388142712414 ], [ 424907.354229784454219, 4388532.489388142712414 ] ], [ [ 424917.354229784454219, 4388527.489388142712414 ], [ 424918.354229784454219, 4388527.489388142712414 ], [ 424918.354229784454219, 4388525.489388142712414 ], [ 424917.354229784454219, 4388525.489388142712414 ], [ 424917.354229784454219, 4388527.489388142712414 ] ], [ [ 424949.354229784454219, 4388520.489388142712414 ], [ 424950.354229784454219, 4388520.489388142712414 ], [ 424950.354229784454219, 4388515.489388142712414 ], [ 424949.354229784454219, 4388515.489388142712414 ], [ 424949.354229784454219, 4388520.489388142712414 ] ], [ [ 424948.354229784454219, 4388514.489388142712414 ], [ 424949.354229784454219, 4388514.489388142712414 ], [ 424949.354229784454219, 4388506.489388142712414 ], [ 424948.354229784454219, 4388506.489388142712414 ], [ 424948.354229784454219, 4388514.489388142712414 ] ], [ [ 424947.354229784454219, 4388506.489388142712414 ], [ 424948.354229784454219, 4388506.489388142712414 ], [ 424948.354229784454219, 4388499.489388142712414 ], [ 424947.354229784454219, 4388499.489388142712414 ], [ 424947.354229784454219, 4388506.489388142712414 ] ], [ [ 424946.354229784454219, 4388498.489388142712414 ], [ 424947.354229784454219, 4388498.489388142712414 ], [ 424947.354229784454219, 4388490.489388142712414 ], [ 424946.354229784454219, 4388490.489388142712414 ], [ 424946.354229784454219, 4388498.489388142712414 ] ], [ [ 424913.354229784454219, 4388469.489388142712414 ], [ 424914.354229784454219, 4388469.489388142712414 ], [ 424914.354229784454219, 4388465.489388142712414 ], [ 424915.354229784454219, 4388465.489388142712414 ], [ 424915.354229784454219, 4388461.489388142712414 ], [ 424916.354229784454219, 4388461.489388142712414 ], [ 424916.354229784454219, 4388456.489388142712414 ], [ 424917.354229784454219, 4388456.489388142712414 ], [ 424917.354229784454219, 4388449.489388142712414 ], [ 424916.354229784454219, 4388449.489388142712414 ], [ 424916.354229784454219, 4388453.489388142712414 ], [ 424915.354229784454219, 4388453.489388142712414 ], [ 424915.354229784454219, 4388457.489388142712414 ], [ 424914.354229784454219, 4388457.489388142712414 ], [ 424914.354229784454219, 4388460.489388142712414 ], [ 424913.354229784454219, 4388460.489388142712414 ], [ 424913.354229784454219, 4388469.489388142712414 ] ] ] } }
]
}
